{"type":"FeatureCollection","features":[{"type":"Feature","properties":{"name":"Villarrica","comuna":"Villarrica","cut":"09120","metro":"Temuco-Padre Las Casas","es_bbox":false},"geometry":{"type":"Polygon","coordinates":[[[-72.3566,-39.343],[-72.3502,-39.3346],[-72.3507,-39.3006],[-72.3616,-39.29662541436464],[-72.3616,-39.26338292682927],[-72.3591,-39.2627],[-72.3467,-39.2294],[-72.3206,-39.2355],[-72.3173,-39.2264],[-72.31759803921568,-39.2245],[-72.1588,-39.2245],[-72.1588,-39.3749],[-72.3616,-39.3749],[-72.3616,-39.345119565217395],[-72.3566,-39.343]]]}}]}