{"type":"FeatureCollection","features":[{"type":"Feature","properties":{"cut":9103,"comuna":"CUNCO"},"geometry":{"type":"Polygon","coordinates":[[[-71.76889971899993,-38.725187794999954],[-71.7811560749999,-38.72807115499995],[-71.78847043499991,-38.73431672799995],[-71.79421000099995,-38.736269999999934],[-71.79453408099994,-38.73949365099992],[-71.79844000199995,-38.74216999999993],[-71.79989257199992,-38.745016783999915],[-71.80797000199993,-38.750039999999956],[-71.80965443699995,-38.75293460499995],[-71.81005166799991,-38.758607938999944],[-71.8145018269999,-38.76086081299991],[-71.82621677899994,-38.77256002099995],[-71.82848910799993,-38.77617793899992],[-71.82782485199994,-38.778841593999914],[-71.82889075899993,-38.779997641999955],[-71.84597476999994,-38.77613091999996],[-71.85813541599993,-38.77834683099991],[-71.87137925399992,-38.777778894999926],[-71.87333172199993,-38.77897546299994],[-71.87721000199991,-38.78528999999992],[-71.88345837399993,-38.78285065999995],[-71.88906970399995,-38.78540327799993],[-71.89244000199994,-38.78946999999994],[-71.8864330259999,-38.79458928199995],[-71.88465587499991,-38.79856206799991],[-71.88457000199992,-38.80461999999994],[-71.88071333499994,-38.80683263699996],[-71.88117096499991,-38.81090532099995],[-71.87794427699993,-38.81418215499991],[-71.87774423499991,-38.816860532999954],[-71.88002997299992,-38.822369944999934],[-71.88675324099995,-38.818549644999905],[-71.89271896699995,-38.81706001099991],[-71.89621600299995,-38.813602955999954],[-71.9034410399999,-38.81355675799995],[-71.91491881299993,-38.81102741099994],[-71.91632958999992,-38.80806925399992],[-71.92445228199995,-38.80627007299995],[-71.93052623699992,-38.80156516099993],[-71.94953299699995,-38.796712089999914],[-71.95239833699992,-38.79763376299991],[-71.96852310299994,-38.79713017899991],[-71.9906296119999,-38.80449038699993],[-71.99915336599992,-38.80667826999991],[-72.00478198299993,-38.80666516699995],[-72.00747615099993,-38.80852254799993],[-72.0115163289999,-38.80660803099994],[-72.01808042699992,-38.8069921039999],[-72.02503789499991,-38.80926871899993],[-72.02628585899993,-38.811133852999944],[-72.03049683099994,-38.81133564299995],[-72.0346545779999,-38.81538729099992],[-72.03826375699992,-38.81578973199993],[-72.03911845099992,-38.81758619499993],[-72.0437176829999,-38.819477546999906],[-72.04476767599994,-38.82134197999994],[-72.04746407099992,-38.821338142999934],[-72.0487288569999,-38.82318094699991],[-72.0542559779999,-38.82437011799993],[-72.05787078599991,-38.82723607899993],[-72.0620111369999,-38.8262232429999],[-72.06312040499995,-38.82739531099992],[-72.0693595489999,-38.827227800999935],[-72.07114773599994,-38.82931324099991],[-72.0808132599999,-38.82670399199992],[-72.08688270099992,-38.82731654799994],[-72.0861979689999,-38.82471373599992],[-72.0908450419999,-38.822420414999954],[-72.09345225699991,-38.82297404199994],[-72.09389971199994,-38.82080083599993],[-72.09865755399994,-38.8227562429999],[-72.10103954099992,-38.82138923899993],[-72.10161615299995,-38.823440827999946],[-72.10938419799993,-38.824340374999906],[-72.11102332599995,-38.82298228499991],[-72.1274212479999,-38.82278536699994],[-72.12995969399992,-38.82203934599994],[-72.13042071099994,-38.820648209999945],[-72.13635509199992,-38.820936273999905],[-72.13590365899995,-38.81967075499995],[-72.1372134369999,-38.81828333099992],[-72.14329707299993,-38.815077053999914],[-72.1493115259999,-38.815658673999906],[-72.15174469699991,-38.81212552199992],[-72.15622776999993,-38.809126206999906],[-72.16380549799993,-38.80813959599993],[-72.1646890209999,-38.80579624199993],[-72.1669774579999,-38.80470947799995],[-72.17440653699992,-38.80444545599994],[-72.17661413899992,-38.80592113199992],[-72.17881127299995,-38.803480271999945],[-72.17920758199995,-38.80533800199993],[-72.18243747299994,-38.80509484499993],[-72.18578006299992,-38.808353767999904],[-72.19190950299992,-38.808345413999916],[-72.19448106699991,-38.80552151599994],[-72.19953095499994,-38.80873537499991],[-72.20516328899993,-38.809642065999924],[-72.2122892459999,-38.80816949299992],[-72.21684042299995,-38.80905723099994],[-72.21913285399995,-38.807260812999914],[-72.22235862999992,-38.80936079599991],[-72.22673240899991,-38.807792063999955],[-72.22665069399994,-38.810440000999904],[-72.22811787199993,-38.809817912999904],[-72.22801429399993,-38.81140398799994],[-72.23311960399991,-38.814925571999936],[-72.24178463899995,-38.81431286499992],[-72.23760237099992,-38.815840178999906],[-72.23898875599991,-38.81793193199991],[-72.2407422629999,-38.81825473099991],[-72.24140476799994,-38.82042220499994],[-72.24914046399994,-38.821069320999925],[-72.24719648099995,-38.822782085999904],[-72.24777889199993,-38.82558166799993],[-72.25235780399993,-38.82381013499992],[-72.25225845199992,-38.82493802899995],[-72.25630027799991,-38.82721572499992],[-72.25582032199992,-38.82843115899993],[-72.25957272099993,-38.82821039999993],[-72.26359277699993,-38.83252807999992],[-72.26676177399992,-38.82875920299995],[-72.26932043099993,-38.82880043499995],[-72.2701566099999,-38.83100505899995],[-72.27179435799991,-38.83149414299993],[-72.27264891899995,-38.831048720999945],[-72.2719541319999,-38.82948226399992],[-72.27470581999995,-38.82913789999992],[-72.27459663699995,-38.830858271999944],[-72.27703696599991,-38.82966233299993],[-72.27895784399993,-38.83038302399996],[-72.27958565699993,-38.832273727999905],[-72.28367044499993,-38.832687524999926],[-72.28239292599994,-38.83422546799994],[-72.28789947299992,-38.833284428999946],[-72.28772492799993,-38.83539179499991],[-72.2926664869999,-38.83478623199994],[-72.29326037999994,-38.83701449599994],[-72.29230876499992,-38.83849563199993],[-72.29525113499994,-38.84136391399994],[-72.29998015399991,-38.83937216499993],[-72.30234534099992,-38.84145701299991],[-72.30601957199991,-38.842190848999905],[-72.3124012479999,-38.840811764999955],[-72.31505284399992,-38.841422777999924],[-72.3195910579999,-38.8468031189999],[-72.32167331799991,-38.85167619199996],[-72.3265880589999,-38.85002841799991],[-72.32705492899993,-38.851275003999945],[-72.32300868999994,-38.852947584999924],[-72.32680103199993,-38.85505407599993],[-72.32911928399994,-38.853904480999915],[-72.33198767399995,-38.85495944899992],[-72.33527215799995,-38.853500511999925],[-72.33456442699992,-38.849683461999916],[-72.34414192999992,-38.85044586499993],[-72.34350070399995,-38.85612761099992],[-72.33743796099992,-38.85949865899994],[-72.33755016099991,-38.86185719899993],[-72.3386527799999,-38.862359849999905],[-72.33748296999994,-38.86365756299995],[-72.3294196139999,-38.86443734599993],[-72.32893293299992,-38.865836189999925],[-72.32520350599992,-38.866346397999905],[-72.32954871699991,-38.87813027199991],[-72.32270130299992,-38.87971232099994],[-72.34786368099992,-38.94472238499992],[-72.32593344499992,-38.94973073999995],[-72.34078352299991,-38.988108636999925],[-72.35079181099991,-38.98565376799991],[-72.35886273199992,-39.00563827099995],[-72.3480597919999,-39.009993591999944],[-72.34191451599992,-39.00917188299991],[-72.33796562099991,-39.017710665999914],[-72.32866537799993,-39.02025287899994],[-72.31590368099995,-39.028443859999925],[-72.31636785199993,-39.03025099899992],[-72.3110839929999,-39.03164705899991],[-72.30870071699991,-39.03073397899993],[-72.3001904059999,-39.03138626799995],[-72.3106919889999,-39.06148503299994],[-72.31884881499991,-39.059561636999945],[-72.31834676199992,-39.061086874999944],[-72.31664008899992,-39.06314673599991],[-72.31500941899992,-39.06245600999995],[-72.3141554149999,-39.06370212399992],[-72.31301437199994,-39.062346962999925],[-72.3104872259999,-39.06457249899995],[-72.3089337909999,-39.06880699399994],[-72.30988974499991,-39.06938763499994],[-72.3117374819999,-39.06775006099991],[-72.31194706799994,-39.07069639699995],[-72.30709031499993,-39.07221042099991],[-72.30563530799992,-39.07082991499993],[-72.30291693099991,-39.07206885599993],[-72.30215934899991,-39.07433964899991],[-72.29801076299992,-39.07541922199994],[-72.29161514799995,-39.08239698299991],[-72.28621456199994,-39.082969533999915],[-72.2780472789999,-39.089711543999954],[-72.27729397999991,-39.092576858999905],[-72.27226355899995,-39.09628806299992],[-72.27197817899992,-39.106011200999944],[-72.27081654799991,-39.1078533779999],[-72.26792366299992,-39.10816845599993],[-72.26675555599991,-39.11124017699996],[-72.26440434199992,-39.11111291499992],[-72.25986710699993,-39.10765941299991],[-72.25189601399995,-39.10796714799994],[-72.24663388699992,-39.10501856099995],[-72.24571269699993,-39.1027490269999],[-72.2428925719999,-39.1029615999999],[-72.24173959799992,-39.099875736999934],[-72.23332522399994,-39.10056360599992],[-72.22862115099991,-39.10273867399991],[-72.22416761099993,-39.100587290999954],[-72.2227048979999,-39.09833342899992],[-72.21532006899992,-39.096585073999904],[-72.20686982799992,-39.09723413799992],[-72.19569065499991,-39.102938528999914],[-72.18418184899991,-39.10526000099992],[-72.16833610899994,-39.1024750279999],[-72.16546726699994,-39.10065302299995],[-72.15901633099992,-39.102040910999904],[-72.15574498099994,-39.09979444299995],[-72.14753014899992,-39.10358002299995],[-72.13863260199992,-39.10264110399993],[-72.1361656819999,-39.104296674999944],[-72.12963866699994,-39.10456395099993],[-72.12665338999994,-39.108440737999956],[-72.11993971999993,-39.10870285999994],[-72.11268126099992,-39.11173932399993],[-72.10948999599992,-39.11125477899992],[-72.10867202799994,-39.11393712499995],[-72.10217661299993,-39.115014422999934],[-72.09912499099994,-39.11806451699994],[-72.09432116399995,-39.11924654799992],[-72.09172934399993,-39.12249258899993],[-72.08800056199993,-39.122975984999925],[-72.08247559699993,-39.12706282999994],[-72.07307140499995,-39.12737792899992],[-72.06774470999994,-39.12436412999995],[-72.06266576199994,-39.12517622799993],[-72.05749669799991,-39.12796140499995],[-72.05612185799993,-39.131845451999936],[-72.04908288299993,-39.13644037899991],[-72.0451071249999,-39.14279967199991],[-72.01877461099991,-39.13638610699991],[-72.00734000199992,-39.13181999999995],[-72.00413748699992,-39.13322530699992],[-72.0029163179999,-39.13112021399991],[-71.9974666679999,-39.131057176999946],[-71.99033612599993,-39.12709399399995],[-71.98152938099992,-39.125847352999926],[-71.98011204199992,-39.125076047999926],[-71.97990206799994,-39.12140599799994],[-71.97765954199991,-39.120612158999904],[-71.96119910199991,-39.12018078099993],[-71.95100511499993,-39.132696290999945],[-71.9459004389999,-39.1340140879999],[-71.94129497199992,-39.13693131799994],[-71.93724023699991,-39.13725001599994],[-71.93412885099991,-39.140995570999905],[-71.93135163099993,-39.14207064499993],[-71.9262481369999,-39.14138319199992],[-71.91320850499994,-39.152447750999954],[-71.9105013269999,-39.15661539999991],[-71.91035734899992,-39.1698676499999],[-71.90933004699991,-39.17200570099993],[-71.90501544799992,-39.175000352999916],[-71.90020033699994,-39.18221697999991],[-71.8926926499999,-39.18583160499992],[-71.88989433299992,-39.1841302709999],[-71.88500383099995,-39.18450141699992],[-71.8715512899999,-39.18149883399991],[-71.8715125949999,-39.17383180299993],[-71.86847415999995,-39.170259133999934],[-71.86784146499991,-39.167446973999915],[-71.86906870999991,-39.16164203099993],[-71.8635219649999,-39.15725874399993],[-71.86208762299992,-39.15170057599994],[-71.8561628249999,-39.14733034599993],[-71.84927630499993,-39.14620069599994],[-71.84392046599993,-39.15013630199991],[-71.81807895199995,-39.15016416399993],[-71.81639422899991,-39.14856133399991],[-71.8156285789999,-39.14203024699992],[-71.81159110199991,-39.137532483999905],[-71.81453327199995,-39.12824431899992],[-71.80979875399993,-39.12604730499993],[-71.79538293999991,-39.128669249999916],[-71.74225995599994,-39.09959331099992],[-71.7309942039999,-39.108264066999936],[-71.7250709939999,-39.108570577999956],[-71.71513274699993,-39.11268664799991],[-71.6984090979999,-39.11281274899994],[-71.6854594369999,-39.11663363999992],[-71.6806272959999,-39.116234763999955],[-71.67267995199995,-39.123763879999956],[-71.66315999999995,-39.1269299999999],[-71.65384545499995,-39.122652143999915],[-71.64827951199993,-39.11580812199992],[-71.62448253899993,-39.11214358899991],[-71.61624371799991,-39.10825729299995],[-71.61608008499991,-39.106307716999936],[-71.6188200279999,-39.10531899699993],[-71.61955808399995,-39.101797243999954],[-71.62371449199992,-39.09933109599996],[-71.62661280099991,-39.0916333909999],[-71.62799408199993,-39.090886879999914],[-71.62734001399991,-39.088889742999925],[-71.62861676099993,-39.084880935999934],[-71.63257492699995,-39.08123724399991],[-71.63021325799991,-39.07902953799993],[-71.62338099499993,-39.07680036499994],[-71.61426465499994,-39.07896337699992],[-71.60782196699995,-39.077613888999906],[-71.60562740799992,-39.07849128599992],[-71.5950982299999,-39.077395761999924],[-71.59095856399995,-39.07609463199992],[-71.58997667499995,-39.07451201999993],[-71.57253132799991,-39.06980678499991],[-71.56614893199992,-39.06681734499995],[-71.55216712499993,-39.06581430099993],[-71.53961667699991,-39.06996064099991],[-71.53404998899993,-39.06733000599991],[-71.5355829799999,-39.06563482999991],[-71.5423979329999,-39.063617876999956],[-71.54167659599995,-39.05814454299991],[-71.54532418699995,-39.045851169999935],[-71.55090092899991,-39.04521555999992],[-71.55469601599992,-39.042498174999935],[-71.55351175499993,-39.03715378499993],[-71.56040224399993,-39.035746256999914],[-71.56143293499991,-39.03233211999992],[-71.5636503149999,-39.03016840399994],[-71.5621570479999,-39.02679679899995],[-71.55652282999995,-39.02258811799993],[-71.56023303699993,-39.01285563599993],[-71.56435910599993,-39.010132866999925],[-71.56390745199991,-39.00779981699992],[-71.56111334999991,-39.00552188599994],[-71.56103999899995,-39.00272999999993],[-71.58995729599991,-39.003802084999904],[-71.5977114989999,-39.00062889599991],[-71.60269999999991,-38.99547999999993],[-71.60909822399992,-38.99691283199991],[-71.61510464199995,-38.99479943699993],[-71.62926418799992,-38.99439425599991],[-71.64359936299991,-38.998435800999914],[-71.64589047299995,-39.001303211999925],[-71.65726645599995,-39.00812976099991],[-71.6611421259999,-39.00896239799994],[-71.6653935839999,-39.00738566299992],[-71.67180320099993,-39.00952282299994],[-71.68006397399995,-39.009209238999915],[-71.68161145199991,-39.01267984799995],[-71.68569979099993,-39.01370179299994],[-71.68857783599992,-39.010491318999925],[-71.69686000099995,-39.005469999999946],[-71.70249212499994,-38.99894912599996],[-71.71488452999995,-38.99177636499991],[-71.71123971999992,-38.98519952099991],[-71.7126083949999,-38.981346437999946],[-71.72242638499995,-38.97495775999994],[-71.72154000099994,-38.972929999999906],[-71.72239626099991,-38.969952417999934],[-71.72795566199994,-38.96548706699991],[-71.73026788099992,-38.95817088299992],[-71.73500145899993,-38.95354440099993],[-71.73464507299991,-38.948484083999915],[-71.74440418699993,-38.948220619999915],[-71.75346430899992,-38.9457304899999],[-71.7583367389999,-38.92940565899994],[-71.75891491599992,-38.91614550799994],[-71.76477673099993,-38.91132757699995],[-71.76602476099993,-38.907536843999935],[-71.76878196899992,-38.904834309999956],[-71.7920424479999,-38.89471063499991],[-71.79343901499993,-38.89305543499995],[-71.79310078399993,-38.89119038299992],[-71.79876410899993,-38.89131891799991],[-71.80692560299991,-38.88665342199994],[-71.80930567799993,-38.87474372999992],[-71.81479852799993,-38.876856295999914],[-71.81431894699995,-38.87819859699994],[-71.81659489599991,-38.87909954499992],[-71.8137625629999,-38.88081769099995],[-71.81543118499991,-38.88197993199992],[-71.81853176299995,-38.88102683199992],[-71.82195120299991,-38.882205452999926],[-71.82784209199991,-38.879350856999906],[-71.8262694089999,-38.88110486399995],[-71.82833550899994,-38.883369297999934],[-71.83429835699991,-38.883346538999945],[-71.83941253899991,-38.88168317399993],[-71.84107664599992,-38.883482029999925],[-71.84297664499991,-38.8821450179999],[-71.84528143499995,-38.8836229929999],[-71.85211635399992,-38.88305985199992],[-71.85632383299992,-38.885666117999904],[-71.84892172399992,-38.87545346199994],[-71.84230159399993,-38.87341780899993],[-71.82905722999993,-38.86377376299993],[-71.82875386199993,-38.85571181699993],[-71.8232936519999,-38.850113077999936],[-71.82314789299994,-38.847532645999934],[-71.81926021099991,-38.84143601099993],[-71.8133662059999,-38.83856361599993],[-71.81433951299994,-38.83556329699991],[-71.8118193329999,-38.83161176199991],[-71.8082517229999,-38.82931163899991],[-71.80779224799994,-38.82265071699993],[-71.80141042199995,-38.81565647299993],[-71.79447521599991,-38.79171500699994],[-71.79669199599994,-38.78607339599995],[-71.7954137669999,-38.78136733999992],[-71.79854104899994,-38.76806628999992],[-71.79404894299995,-38.76179012299991],[-71.79351912399994,-38.759185585999944],[-71.78424137099995,-38.75686295499992],[-71.78060734099995,-38.74356966399995],[-71.7738807149999,-38.737077977999945],[-71.76974976699995,-38.73534673699993],[-71.75864000099995,-38.72580999999991],[-71.76889971899993,-38.725187794999954]]]}},{"type":"Feature","properties":{"cut":9105,"comuna":"FREIRE"},"geometry":{"type":"Polygon","coordinates":[[[-72.63275655299992,-38.829248126999914],[-72.63326324099995,-38.827222384999914],[-72.63715049899992,-38.825513592999926],[-72.63861317299995,-38.827590303999955],[-72.63797306899994,-38.829312959999925],[-72.64056852899995,-38.83226552499991],[-72.64224927599992,-38.83219563799992],[-72.6445156879999,-38.8285995839999],[-72.64797719499995,-38.82872870099993],[-72.65301216699993,-38.832916850999936],[-72.6542186129999,-38.83689441899992],[-72.65733607499993,-38.83812891799994],[-72.67030394599993,-38.83074133899993],[-72.6747889209999,-38.83118676599992],[-72.67787350099991,-38.834749045999956],[-72.68488730999991,-38.837788435999926],[-72.69367561399991,-38.83479524299992],[-72.69819035799992,-38.831828464999944],[-72.70434532099995,-38.83166037299992],[-72.71080384499993,-38.83607430799992],[-72.71079461999994,-38.838581132999934],[-72.70743610499994,-38.84377852199992],[-72.71495637499993,-38.845885052999904],[-72.7217476539999,-38.842587170999934],[-72.72134099199991,-38.83806023499994],[-72.73279543599995,-38.83829965199993],[-72.73973804299993,-38.835770228999934],[-72.75579833499995,-38.83636210299994],[-72.76594530199992,-38.838327500999924],[-72.77282627599993,-38.84159312699995],[-72.77894292999991,-38.84142757099994],[-72.7875325899999,-38.83808038299992],[-72.79018222099995,-38.83306886399993],[-72.80381609799991,-38.83307536399991],[-72.81299428999995,-38.826163626999914],[-72.81615411899992,-38.82785278699993],[-72.81744909899993,-38.83106523299995],[-72.81687797799992,-38.833035999999936],[-72.81395326199993,-38.835079066999924],[-72.80796370799993,-38.836624479999955],[-72.80717932199991,-38.838654781999935],[-72.80861828699994,-38.84093133199991],[-72.80718579199993,-38.844251637999946],[-72.80794012599995,-38.845595432999914],[-72.80687162699991,-38.84596630699991],[-72.80829993599991,-38.847134152999956],[-72.80675277899991,-38.849188425999955],[-72.80331138999992,-38.849926560999904],[-72.8010234429999,-38.852854918999924],[-72.79899178699992,-38.853010111999936],[-72.81738623699994,-38.89851976299991],[-72.8167127289999,-38.89991969499994],[-72.81866953999992,-38.9051145759999],[-72.82536331299991,-38.91175381399995],[-72.83425131099995,-38.90937824899993],[-72.85207938099995,-38.91190171899996],[-72.86398607199993,-38.907627110999954],[-72.86922694099991,-38.90838666399992],[-72.87233231899995,-38.911475141999915],[-72.87231449799992,-38.91424696999991],[-72.89983851199992,-38.98072653899993],[-72.91384988199991,-39.021974703999945],[-72.90509055099994,-39.02468998499995],[-72.89691894299995,-39.018457450999904],[-72.88870645199995,-39.02325345699995],[-72.8690326219999,-39.020534848999944],[-72.8565989459999,-39.02251029599995],[-72.8536165299999,-39.02772769599994],[-72.84938450599992,-39.03143996599994],[-72.8322540339999,-39.03240800399993],[-72.82130027699992,-39.034826833999944],[-72.81080742899991,-39.02812059699994],[-72.81025652799991,-39.020388313999945],[-72.80767120099995,-39.01659719899993],[-72.79976598799993,-39.014008549999915],[-72.79492818499995,-39.007498007999914],[-72.78588705699991,-39.004389517999925],[-72.77686097999992,-38.99791707999992],[-72.7693370419999,-38.9958547679999],[-72.75676400599991,-38.99798228499992],[-72.75218955499992,-39.00057081199992],[-72.7455760119999,-39.00044314599995],[-72.74271923099991,-39.0043672619999],[-72.73924722599992,-39.005673833999936],[-72.73480283299995,-39.00224775399994],[-72.73148156999991,-39.00168576999994],[-72.72472994199995,-39.00681268199992],[-72.71570277899991,-39.00431489999994],[-72.70622632699991,-39.00540795899991],[-72.70150642699991,-39.00304110399992],[-72.6950957919999,-38.99479005699993],[-72.6877551199999,-38.99427427099994],[-72.68411858399992,-38.992561018999936],[-72.68334218299992,-38.98768910799993],[-72.6779097989999,-38.98277228699993],[-72.6757333299999,-38.98241407099994],[-72.67156865899995,-38.98490713099994],[-72.66893921299993,-38.984754420999934],[-72.66567780199995,-38.98337249899993],[-72.6668715479999,-38.97918853999994],[-72.66485514699991,-38.97690941199994],[-72.6379818769999,-38.97189529599996],[-72.63032470699994,-38.981693572999916],[-72.62502252299993,-38.98512396199993],[-72.61555434499991,-38.98454775499994],[-72.6031475389999,-38.99085241999995],[-72.58909963099995,-38.98749902199995],[-72.58515139699995,-38.98526939499993],[-72.57580912199995,-38.993295100999944],[-72.56382137199995,-38.996337267999934],[-72.55435958599992,-39.0073025879999],[-72.55171158999991,-39.006814436999946],[-72.54916626799991,-39.004130595999925],[-72.54655515699994,-39.003873347999956],[-72.54448914799991,-39.0093138549999],[-72.54184261899991,-39.01084886599995],[-72.5369334259999,-39.01135226899993],[-72.53129478099993,-39.00840032199994],[-72.5260115179999,-39.010402392999936],[-72.51771507399991,-39.01774732699994],[-72.51873695199993,-39.02023895699995],[-72.5235262029999,-39.02229262599991],[-72.52123225699995,-39.027279490999945],[-72.52344886199995,-39.03400066599994],[-72.51752768699993,-39.037097511999946],[-72.5129854299999,-39.0417506899999],[-72.51237493499991,-39.045525633999944],[-72.50346381599991,-39.05553255099994],[-72.5059742219999,-39.058700838999926],[-72.50594359599995,-39.062199534999934],[-72.49540345399993,-39.07194242499992],[-72.48315356899991,-39.06936967799993],[-72.47935416299993,-39.074265993999916],[-72.47547975499992,-39.07649096199992],[-72.46022147499991,-39.07736193599993],[-72.44946238199992,-39.08223762999995],[-72.4300134959999,-39.0884241089999],[-72.41826963799991,-39.09058153299992],[-72.41634300899995,-39.09178943199993],[-72.4114958369999,-39.1015423689999],[-72.40371424699993,-39.10289640099995],[-72.39180149599991,-39.10787321399994],[-72.38222612499993,-39.10887297399995],[-72.3803301769999,-39.11463840099992],[-72.37204226999995,-39.11917752699992],[-72.36958668099993,-39.11941812999993],[-72.35746919499991,-39.08824901599991],[-72.33158454199992,-39.09435535699993],[-72.31884881499991,-39.059561636999945],[-72.3106919889999,-39.06148503299994],[-72.3001904059999,-39.03138626799995],[-72.30870071699991,-39.03073397899993],[-72.3110839929999,-39.03164705899991],[-72.31636785199993,-39.03025099899992],[-72.31590368099995,-39.028443859999925],[-72.32866537799993,-39.02025287899994],[-72.33796562099991,-39.017710665999914],[-72.34191451599992,-39.00917188299991],[-72.3480597919999,-39.009993591999944],[-72.35886273199992,-39.00563827099995],[-72.35079181099991,-38.98565376799991],[-72.34078352299991,-38.988108636999925],[-72.32593344499992,-38.94973073999995],[-72.34786368099992,-38.94472238499992],[-72.3337917469999,-38.908267973999955],[-72.33804998599993,-38.906983451999906],[-72.34016966799993,-38.90479745499994],[-72.34162188599993,-38.90533508099992],[-72.34331855499994,-38.902797026999906],[-72.3463113219999,-38.90306784599994],[-72.35039712699995,-38.89848028999995],[-72.3519580759999,-38.90012391399995],[-72.35436577299993,-38.897984727999926],[-72.35856579099993,-38.90044036499995],[-72.36029732399993,-38.898128078999946],[-72.3646235679999,-38.89908627799991],[-72.36760481599993,-38.89611737799993],[-72.37214952399995,-38.898341554999945],[-72.38430111499991,-38.890028525999924],[-72.3870985069999,-38.892690445999904],[-72.38835101299992,-38.89012824699995],[-72.38933271099995,-38.890983595999955],[-72.39395498499994,-38.890348134999954],[-72.3962601849999,-38.89176003499995],[-72.40174501999991,-38.89070654599993],[-72.40388612699991,-38.8888937289999],[-72.4068498119999,-38.88880646399991],[-72.4092732869999,-38.8857610039999],[-72.41259607399991,-38.88524459799993],[-72.4167861439999,-38.886878063999916],[-72.41942599499993,-38.88526519399994],[-72.42080024799992,-38.882547652999904],[-72.42829937899995,-38.88068599399992],[-72.42969202099994,-38.88152303399994],[-72.43430205399994,-38.87889907199991],[-72.43679194799995,-38.88087733799995],[-72.44956288399993,-38.880391319999944],[-72.45160428399993,-38.883260434999954],[-72.45479497799994,-38.88421301099993],[-72.4597670839999,-38.88216353699994],[-72.46221996199995,-38.88322147899993],[-72.46905638899995,-38.88240591099992],[-72.47763589999994,-38.878622900999915],[-72.48643980799994,-38.878906532999906],[-72.49199524499994,-38.87613485599991],[-72.49768336499994,-38.87732460299992],[-72.4995389739999,-38.87601291699991],[-72.5010937749999,-38.87888427699994],[-72.5059373169999,-38.87735262199993],[-72.50425274299994,-38.87530293899994],[-72.50690760999993,-38.8773958779999],[-72.51077516499993,-38.87725769299993],[-72.50823404999994,-38.87565829999994],[-72.51299876599995,-38.87387689499991],[-72.51296036399992,-38.87216873199992],[-72.51135937099991,-38.87114803999992],[-72.51489107099991,-38.86987172799991],[-72.51464859299995,-38.86854523199992],[-72.51033976399992,-38.86711405299991],[-72.51447767899992,-38.86549508899992],[-72.51785364499995,-38.86605554099992],[-72.51702647899992,-38.86753953099992],[-72.51897818099991,-38.868182858999944],[-72.5204496689999,-38.8655386879999],[-72.52269404899994,-38.86658740099995],[-72.53371888399994,-38.86515840699991],[-72.54321226099995,-38.867244538999955],[-72.54471891299994,-38.86859013299994],[-72.54458284499992,-38.87066089299992],[-72.53903513099993,-38.87509648099996],[-72.54199325199994,-38.87624329699992],[-72.54359716099992,-38.875821225999914],[-72.5436103909999,-38.87388791299992],[-72.54496714499993,-38.87311501699992],[-72.54593112799995,-38.87323360899995],[-72.54571117599994,-38.87491826999991],[-72.54755352299992,-38.87470971199991],[-72.55074473899992,-38.867352196999946],[-72.55216859299992,-38.86833843699992],[-72.55296352999994,-38.87177241599994],[-72.55908448299994,-38.86753583899991],[-72.56112995299992,-38.8688478009999],[-72.55943874999991,-38.8695453709999],[-72.55900638899993,-38.87171125499992],[-72.56672684499995,-38.872691785999905],[-72.56683658299994,-38.87137422099994],[-72.56331116099994,-38.869033387999934],[-72.56465506699993,-38.86767901699994],[-72.5702079969999,-38.86845318299993],[-72.5699226079999,-38.87034211099996],[-72.57198239399992,-38.87112981699994],[-72.57575020899992,-38.86713535399991],[-72.58775110899995,-38.86298395199992],[-72.6024694109999,-38.86259007199993],[-72.60398996399994,-38.85980781599994],[-72.60135581999992,-38.855695659999924],[-72.60211212099995,-38.852604852999946],[-72.6111162329999,-38.85483797899991],[-72.62223701399995,-38.852459247999946],[-72.62500875899991,-38.84747677699994],[-72.62467682999994,-38.8396546269999],[-72.62636802399993,-38.83681833899993],[-72.63510675899994,-38.836553359999925],[-72.63590128999994,-38.83102888099995],[-72.6351872109999,-38.82939749299993],[-72.63275655299992,-38.829248126999914]]]}},{"type":"Feature","properties":{"cut":9109,"comuna":"LONCOCHE"},"geometry":{"type":"Polygon","coordinates":[[[-72.34669452499992,-39.2293587339999],[-72.40789840999992,-39.21467736999995],[-72.41442752099994,-39.232036588999904],[-72.43794132699992,-39.22579385699993],[-72.44478381899995,-39.24302841499991],[-72.4525883199999,-39.24119581699995],[-72.4586380579999,-39.25819031799995],[-72.56246192799995,-39.233654386999945],[-72.56281051399992,-39.237081556999954],[-72.55896176899995,-39.237898627999925],[-72.56006941599992,-39.239247048999914],[-72.56128601699993,-39.23789797099994],[-72.56348838499991,-39.24234317799994],[-72.5619122359999,-39.24417510899991],[-72.56342345099995,-39.24484641499993],[-72.56206201799995,-39.24796216499993],[-72.55302911699994,-39.250862818999906],[-72.55261970399994,-39.254201174999935],[-72.55421426799995,-39.25389686999995],[-72.55473862199995,-39.25512411299991],[-72.55150585799993,-39.25474082599993],[-72.55245281299995,-39.255625635999934],[-72.5510711309999,-39.25655606399994],[-72.5511665869999,-39.261116778999906],[-72.55269388599993,-39.26555895599995],[-72.5477769439999,-39.26800959099995],[-72.5452112179999,-39.270892526999944],[-72.54591627999991,-39.27254708499993],[-72.5448437519999,-39.273574036999946],[-72.54140154099991,-39.27522214599992],[-72.54114056199995,-39.273176030999934],[-72.54003119799995,-39.27301745199992],[-72.5382852109999,-39.275399516999926],[-72.5386329669999,-39.27700679599991],[-72.65310592199995,-39.25120735899992],[-72.65321123799993,-39.25253836199994],[-72.66058406699995,-39.25095524499994],[-72.66032942599992,-39.247142580999935],[-72.67552486399995,-39.243247992999954],[-72.67351053199991,-39.25061242599992],[-72.67935919999991,-39.24782804299991],[-72.6798475889999,-39.25501453299995],[-72.68866201799995,-39.252929611999946],[-72.69032360599994,-39.257162269999924],[-72.71019814099992,-39.252776887999914],[-72.71441282899991,-39.254558206999945],[-72.7169194789999,-39.26082738699995],[-72.72256235599991,-39.25965963899995],[-72.72440796599994,-39.26496049399992],[-72.73140853899991,-39.263942829999905],[-72.7336116649999,-39.270187645999954],[-72.83681683599991,-39.250702875999934],[-72.8526601929999,-39.29071286799996],[-72.84780464799991,-39.293760585999905],[-72.84370332499992,-39.299696096999924],[-72.8423179749999,-39.30695007599991],[-72.83444996999992,-39.31174418599994],[-72.83290379399995,-39.31508048099994],[-72.83645941299994,-39.322349808999945],[-72.84815987999991,-39.33424000999992],[-72.85323344299991,-39.33336389699991],[-72.8584798679999,-39.334848059999956],[-72.85829267699995,-39.34098014099993],[-72.86119610199995,-39.344957225999906],[-72.86132596199991,-39.349712163999925],[-72.8578622519999,-39.351755634999904],[-72.85743927099992,-39.35582474899991],[-72.86991262299995,-39.36349053299995],[-72.87565716899991,-39.37134995899993],[-72.88046755199991,-39.37373515099995],[-72.88794998599991,-39.37377512699993],[-72.90001199599993,-39.380541223999955],[-72.90162078199995,-39.383831011999916],[-72.90191142299994,-39.38960476699992],[-72.89762957799991,-39.39307482299995],[-72.89638175199991,-39.39957322899994],[-72.90009954099992,-39.40934563999991],[-72.89754844299995,-39.43015676999994],[-72.89381103799991,-39.42948530499996],[-72.88902679899991,-39.424218080999935],[-72.8856850489999,-39.42435557299996],[-72.88606933799991,-39.41894334299991],[-72.8840659729999,-39.41837984999995],[-72.88521078999992,-39.41535546199992],[-72.88260697299995,-39.41184842599995],[-72.8798527479999,-39.412523507999936],[-72.8776556549999,-39.41488446199992],[-72.87161047299992,-39.41508479899994],[-72.86801073799995,-39.41374401099995],[-72.87073868199991,-39.409262215999945],[-72.86747670799991,-39.40732846599991],[-72.86952131599992,-39.40597397399995],[-72.8697356479999,-39.403725523999924],[-72.86845774699992,-39.402715566999916],[-72.87010972899992,-39.39899337199995],[-72.86013108799995,-39.39920660799993],[-72.85681511099995,-39.397947280999915],[-72.85425391899992,-39.39948572499992],[-72.84703476999994,-39.40785725099994],[-72.8458544689999,-39.41156080999991],[-72.84377342699992,-39.41292321299994],[-72.83675796299991,-39.413540697999906],[-72.83068714699994,-39.410143655999946],[-72.82544590999993,-39.40950068899991],[-72.8210126319999,-39.40713380599993],[-72.81693232499993,-39.41009796299994],[-72.80837146199991,-39.41020721199993],[-72.80319900499995,-39.409276237999904],[-72.79828723199995,-39.40583183699994],[-72.79402431099993,-39.40491317099992],[-72.7903008209999,-39.41079769599992],[-72.79059587299992,-39.41651075999994],[-72.7873549169999,-39.41773747599996],[-72.78507215499991,-39.42182932399993],[-72.78249982799991,-39.42222175399991],[-72.78400807499992,-39.42583173799994],[-72.78809289899993,-39.424382428999934],[-72.78764374799994,-39.429446165999934],[-72.78981863299992,-39.43060919799996],[-72.79023695899991,-39.43323085299994],[-72.78634700299995,-39.430802136999944],[-72.77647942099992,-39.43134777699993],[-72.77285221699992,-39.42773943699996],[-72.77117386099991,-39.43261704199995],[-72.76505859499991,-39.43147467299991],[-72.7625818379999,-39.434594757999946],[-72.75509894099991,-39.43847916999994],[-72.7533053009999,-39.435548629999914],[-72.75157657299991,-39.43500799499992],[-72.7499596909999,-39.437525928999946],[-72.74048387199991,-39.44148215599995],[-72.73616343599991,-39.439446182999916],[-72.73557844499993,-39.43749002599992],[-72.7359851619999,-39.43611675199992],[-72.7406412759999,-39.43625563699993],[-72.7402716759999,-39.435341372999915],[-72.73674981899995,-39.43480411799993],[-72.7359337979999,-39.43296512299992],[-72.7313801869999,-39.43223406599992],[-72.7275372869999,-39.42832293099991],[-72.72206474399991,-39.42602207199991],[-72.71335080999995,-39.426022194999916],[-72.70987310699991,-39.428570942999954],[-72.70282092999992,-39.42909850299992],[-72.69386720299991,-39.43166907099993],[-72.69279776299993,-39.43300825099993],[-72.68919999699995,-39.43285120799993],[-72.68385967499995,-39.43597925899991],[-72.67745991499993,-39.44265355299996],[-72.67671905799995,-39.448183925999956],[-72.67417805499991,-39.45155786399994],[-72.66812907999991,-39.45215254099992],[-72.66572901399991,-39.4565564479999],[-72.65938036499995,-39.4600506779999],[-72.65193553899991,-39.45761661999995],[-72.64753591099992,-39.45841195999992],[-72.64375879199991,-39.45745043399995],[-72.6326619589999,-39.45204837599994],[-72.62724515999992,-39.446287380999934],[-72.62041551599992,-39.444469141999946],[-72.60381995299991,-39.4493287329999],[-72.59238186599993,-39.449541575999945],[-72.5826015259999,-39.44566643699994],[-72.56438566499992,-39.44160325899992],[-72.55210984999991,-39.44061181799992],[-72.53758371299995,-39.43623818099991],[-72.53231172399995,-39.43332062399992],[-72.52386093599995,-39.45387222499994],[-72.52174285299992,-39.472373459999915],[-72.5160638719999,-39.47774175599994],[-72.50599591199995,-39.47161783899992],[-72.49922607499991,-39.4749093609999],[-72.48179742499991,-39.47604710699994],[-72.4752589759999,-39.478570041999944],[-72.46174836199992,-39.47688957699995],[-72.45712270899992,-39.47994847099994],[-72.45323274799995,-39.47865231399993],[-72.4461457299999,-39.47869465499991],[-72.44064688999993,-39.474872915999924],[-72.42661596799991,-39.481331661999945],[-72.41780745299991,-39.48032415699993],[-72.4115323979999,-39.486437278999915],[-72.4043664639999,-39.48772188499993],[-72.3915521859999,-39.49851567099995],[-72.37979043299993,-39.504305838999926],[-72.35857178099991,-39.507670307999945],[-72.33440323399992,-39.50896311199995],[-72.32959323499995,-39.51024484399994],[-72.3242944559999,-39.50856705199993],[-72.30839404099993,-39.50187179099993],[-72.30222000599991,-39.49777999999992],[-72.31992245499993,-39.48851952799993],[-72.32453900299993,-39.48363239699995],[-72.33407211799994,-39.48299276299991],[-72.34243157399993,-39.47782990499991],[-72.3435414619999,-39.47625422699991],[-72.3423901999999,-39.47446936699993],[-72.3437929509999,-39.469645775999936],[-72.34841658099992,-39.463819574999945],[-72.35306050199995,-39.462796821999916],[-72.3542364729999,-39.460768110999936],[-72.34825074799994,-39.45263189599996],[-72.34389093699991,-39.449460347999945],[-72.34573551199992,-39.44208375399995],[-72.34068167399994,-39.43135137699994],[-72.34058787399994,-39.42312870099994],[-72.33875109299993,-39.42140814299995],[-72.34710124599991,-39.4211943329999],[-72.33896011999991,-39.39931543299991],[-72.34293387299994,-39.39588560999994],[-72.34535282299993,-39.39670211299995],[-72.34443850699995,-39.39559116299995],[-72.3452560039999,-39.39475849599995],[-72.35130722199995,-39.39353616799991],[-72.3577568369999,-39.39390363199993],[-72.35807732099994,-39.39269922199992],[-72.36039812199994,-39.393657323999946],[-72.36634692299992,-39.392891335999934],[-72.36809989799991,-39.390156292999905],[-72.36634349899992,-39.38879672199994],[-72.36935227799995,-39.387666650999904],[-72.37155867399991,-39.38488775499991],[-72.37606352699993,-39.38593993799992],[-72.37500907099991,-39.38435759899994],[-72.37735280999993,-39.37859973999991],[-72.37681389999995,-39.37673625299993],[-72.3794341759999,-39.37565570399994],[-72.37970051799994,-39.37342298899995],[-72.38181477799992,-39.374308440999926],[-72.38288639599995,-39.37174249699996],[-72.38817069399994,-39.37152346599993],[-72.3881702779999,-39.37363605199994],[-72.3897894669999,-39.37392916199991],[-72.39247818599995,-39.37310660599991],[-72.3951894089999,-39.36984306699992],[-72.40939967999992,-39.37211994499995],[-72.41356243399991,-39.37056396199995],[-72.41260093499994,-39.36945248799992],[-72.4133396599999,-39.36771667599993],[-72.41998681399991,-39.36567965599994],[-72.42207046899995,-39.367207840999924],[-72.42384733499995,-39.36605352399994],[-72.42818356799995,-39.36710445199992],[-72.43092465199993,-39.36384521999992],[-72.4366771839999,-39.36297953899992],[-72.4349160889999,-39.36078016999994],[-72.41969093799992,-39.360929857999906],[-72.41685419899994,-39.35976778899993],[-72.41279289699992,-39.36083516699995],[-72.4104613209999,-39.3594904869999],[-72.39905199099991,-39.36006020699995],[-72.39306636999993,-39.358800068999926],[-72.38880509499995,-39.35669997999992],[-72.38544858599994,-39.35049397799992],[-72.37648082899995,-39.34920645999995],[-72.37378555799995,-39.35026273999995],[-72.37185653999995,-39.34807503899992],[-72.36506265499992,-39.346673584999905],[-72.3631163199999,-39.343548419999934],[-72.35676294299992,-39.343115921999924],[-72.35232523499991,-39.33761864199994],[-72.34747180999994,-39.336422486999936],[-72.3500708819999,-39.33483759999996],[-72.35037232999991,-39.332749891999924],[-72.35310820399991,-39.33033922799996],[-72.3514064389999,-39.32720494999995],[-72.35215386699991,-39.32561934699993],[-72.3507191729999,-39.322719853999956],[-72.35140493699993,-39.31711136699994],[-72.3500827439999,-39.31127376499995],[-72.34790083999991,-39.30964087099994],[-72.34817263899993,-39.30751977399996],[-72.3502205069999,-39.305953830999954],[-72.34890077299991,-39.30364900199993],[-72.3506844499999,-39.30064910699991],[-72.35339846099993,-39.29891809199995],[-72.35834584399993,-39.29876476399994],[-72.36151735199991,-39.29669259099995],[-72.36304559299992,-39.2969839939999],[-72.36748067799994,-39.293751098999905],[-72.37289371899993,-39.293904977999944],[-72.37389088899994,-39.28971577599992],[-72.37712339199993,-39.287189585999954],[-72.37990176599993,-39.2869458749999],[-72.38387364499994,-39.28317487399994],[-72.3863318459999,-39.28705445199995],[-72.38812341899995,-39.28719828599992],[-72.39037247899995,-39.28109106599993],[-72.38750032599995,-39.27807615599994],[-72.38814833999993,-39.274225817999934],[-72.3921774929999,-39.27325311199991],[-72.3936465079999,-39.27167340099993],[-72.3923597669999,-39.26740130899992],[-72.3796261679999,-39.26827744299993],[-72.37296882599992,-39.266717430999904],[-72.37177822399991,-39.264753613999915],[-72.36564501999993,-39.26261492899994],[-72.3608456849999,-39.26463697499992],[-72.36087107499992,-39.262128193999956],[-72.35908099799991,-39.262654022999925],[-72.34669452499992,-39.2293587339999]]]}},{"type":"Feature","properties":{"cut":9114,"comuna":"PITRUFQUÉN"},"geometry":{"type":"Polygon","coordinates":[[[-72.6389709149999,-38.97183780699993],[-72.66485514699991,-38.97690941199994],[-72.6668715479999,-38.97918853999994],[-72.66567780199995,-38.98337249899993],[-72.66893921299993,-38.984754420999934],[-72.67156865899995,-38.98490713099994],[-72.6757333299999,-38.98241407099994],[-72.6779097989999,-38.98277228699993],[-72.68334218299992,-38.98768910799993],[-72.68411858399992,-38.992561018999936],[-72.6877551199999,-38.99427427099994],[-72.6950957919999,-38.99479005699993],[-72.70150642699991,-39.00304110399992],[-72.70622632699991,-39.00540795899991],[-72.71570277899991,-39.00431489999994],[-72.72472994199995,-39.00681268199992],[-72.73148156999991,-39.00168576999994],[-72.73480283299995,-39.00224775399994],[-72.73924722599992,-39.005673833999936],[-72.74271923099991,-39.0043672619999],[-72.7455760119999,-39.00044314599995],[-72.75218955499992,-39.00057081199992],[-72.75676400599991,-38.99798228499992],[-72.7693370419999,-38.9958547679999],[-72.77686097999992,-38.99791707999992],[-72.78588705699991,-39.004389517999925],[-72.79492818499995,-39.007498007999914],[-72.79976598799993,-39.014008549999915],[-72.80767120099995,-39.01659719899993],[-72.81025652799991,-39.020388313999945],[-72.81080742899991,-39.02812059699994],[-72.82130027699992,-39.034826833999944],[-72.8322540339999,-39.03240800399993],[-72.84938450599992,-39.03143996599994],[-72.8536165299999,-39.02772769599994],[-72.8565989459999,-39.02251029599995],[-72.8690326219999,-39.020534848999944],[-72.88870645199995,-39.02325345699995],[-72.89691894299995,-39.018457450999904],[-72.90509055099994,-39.02468998499995],[-72.91754208099991,-39.02150307399995],[-72.93095323599994,-39.024574697999924],[-72.93891229999991,-39.020308934999946],[-72.94829982699991,-39.02126139799992],[-72.95477558599993,-39.01883079699991],[-72.96131054199992,-39.018420617999936],[-72.96272760399995,-39.01532394599991],[-72.9712248269999,-39.010947303999956],[-72.97496534499993,-39.01123527699991],[-72.97990339899991,-39.01374725499994],[-72.98624364999995,-39.02017849899994],[-73.00089776599992,-39.019263373999934],[-72.99495791999993,-39.02049182299993],[-72.99297821699992,-39.02441757199995],[-72.98732994699992,-39.026431129999935],[-72.97935928299995,-39.02409145799993],[-72.97793484199991,-39.02667956099992],[-72.97867908499995,-39.03081838799994],[-72.97676020299991,-39.03170170199991],[-72.97630948099993,-39.029702528999906],[-72.97574045699992,-39.032073804999925],[-72.97657839399994,-39.03415691299995],[-72.97935314299991,-39.034284735999904],[-72.98134115199991,-39.041793869999935],[-72.98499859499992,-39.041744509999944],[-72.98373187399994,-39.04342552499992],[-72.9848293899999,-39.04658002299993],[-72.98332774099993,-39.04763076799992],[-72.98184673299994,-39.052394016999926],[-72.97775870299995,-39.05306200699994],[-72.97770114699995,-39.057863392999934],[-72.97908863299995,-39.059180402999914],[-72.97998796899992,-39.06482729999993],[-72.97850053199994,-39.06647739299996],[-72.9802062139999,-39.066065471999934],[-72.98211021799995,-39.07035570599993],[-72.98446213799991,-39.07117576899992],[-72.98373031699992,-39.072420019999925],[-72.98758097399991,-39.073991246999924],[-72.98744826299992,-39.078102059999935],[-72.98502202399993,-39.07988468399992],[-72.98618604899991,-39.08072021299995],[-72.98602377899994,-39.0875425399999],[-72.98533272299994,-39.089557861999936],[-72.9839205859999,-39.08969111999994],[-72.98589435999992,-39.09447805299993],[-72.98434661699991,-39.09444678999995],[-72.98413054899993,-39.09718661499994],[-72.9826897769999,-39.09824289199992],[-72.98492553299991,-39.10020521599995],[-72.98454131499994,-39.10318990799993],[-72.98676281099995,-39.10642236599995],[-72.98715936499991,-39.11039363499992],[-72.98292345399994,-39.11237918599994],[-72.97898154199993,-39.117095210999935],[-72.97822173499992,-39.12207808499994],[-72.97493488899994,-39.12348063099995],[-72.9736507419999,-39.13193671699992],[-72.97042316699992,-39.13765745799992],[-72.96225423299995,-39.13984470899993],[-72.95922980099994,-39.14259279299995],[-72.94245736899995,-39.14978956899995],[-72.93930887999994,-39.146619175999945],[-72.9358502099999,-39.14765276899993],[-72.93143401899994,-39.146450933999915],[-72.92738773699995,-39.141495465999924],[-72.92263572599995,-39.14286684299992],[-72.91580457099991,-39.13992017999993],[-72.91077590799995,-39.139262269999904],[-72.90736835799993,-39.14068624399994],[-72.89344866599993,-39.13723217899991],[-72.88505859999992,-39.138958422999906],[-72.8812093109999,-39.136730127999954],[-72.8778892229999,-39.138624215999926],[-72.8745943529999,-39.13876799499991],[-72.86735951199995,-39.13688858499995],[-72.8658198199999,-39.134530441999914],[-72.85709077999991,-39.13618492199993],[-72.8514291859999,-39.13976231399994],[-72.83742911999991,-39.14482122699991],[-72.8346171579999,-39.14719420699993],[-72.82795243699991,-39.148025935999954],[-72.82662396499995,-39.14573885999994],[-72.8273852449999,-39.14292398099991],[-72.82533138899993,-39.13891233599992],[-72.82660637499993,-39.13230039899992],[-72.82305187999992,-39.12387742899995],[-72.82235554699992,-39.11481140399991],[-72.81628808199991,-39.09918976799992],[-72.79273208199993,-39.10417756599992],[-72.7915875249999,-39.100335567999934],[-72.78138160099991,-39.10280437699993],[-72.7538283369999,-39.03403105399991],[-72.7520523789999,-39.03596007699991],[-72.7527353019999,-39.037949296999955],[-72.7515896939999,-39.03838360699996],[-72.75024616499991,-39.035529022999924],[-72.7461302559999,-39.0363472759999],[-72.74239803899991,-39.03541242099993],[-72.7448228959999,-39.03256548799993],[-72.74140269199995,-39.03062132699995],[-72.73974212999991,-39.031101462999914],[-72.73893985899991,-39.03368196699995],[-72.7371209609999,-39.03328214499993],[-72.73656019299995,-39.031458451999924],[-72.7305320939999,-39.03184126699995],[-72.7296789049999,-39.034423174999915],[-72.73631421699992,-39.03639456099995],[-72.73624270899995,-39.03744735999993],[-72.73249009099993,-39.03816014599994],[-72.72812361599995,-39.036146569999914],[-72.72416247799993,-39.03823925699993],[-72.72551632299991,-39.03955138899994],[-72.7294733789999,-39.03926399199992],[-72.73157069799993,-39.04360037799995],[-72.72867399299992,-39.044105550999916],[-72.7267294369999,-39.04170804899991],[-72.71879934999993,-39.04257284499994],[-72.7147814999999,-39.04630694399992],[-72.71248970599993,-39.05204397999995],[-72.7085108629999,-39.041374067999925],[-72.70225721599991,-39.04278535599991],[-72.70501451199993,-39.050352940999915],[-72.63350810199995,-39.066446141999904],[-72.62262780999993,-39.06957453199993],[-72.6232358609999,-39.071577679999905],[-72.5902665559999,-39.07899761099992],[-72.59650924699991,-39.09453563399995],[-72.4996626379999,-39.11699871499991],[-72.50599777399992,-39.134053141999914],[-72.47123648999991,-39.14157589799993],[-72.47914829399991,-39.16088890699996],[-72.44903587099992,-39.16746464499994],[-72.45560560099995,-39.18455717299992],[-72.4049144459999,-39.19640321399993],[-72.41120478599993,-39.2138285069999],[-72.32057521999991,-39.235482099999956],[-72.32080778399995,-39.237856750999924],[-72.31625497199991,-39.23779542799991],[-72.31530051699991,-39.2349536129999],[-72.31658566699991,-39.23277563999994],[-72.31437266199993,-39.230021880999914],[-72.3124117289999,-39.22998827099991],[-72.31374621599991,-39.22897060699995],[-72.3105124569999,-39.227556223999954],[-72.31351896299992,-39.226093721999916],[-72.31605068199991,-39.22932374499993],[-72.3173435949999,-39.22644695999992],[-72.31473979299994,-39.225795701999914],[-72.31757889799991,-39.22430010699992],[-72.3173271629999,-39.22265170199995],[-72.3202029599999,-39.22156462399994],[-72.31942393599991,-39.21852068399994],[-72.32139549099992,-39.217872910999915],[-72.31896500699992,-39.21641317299992],[-72.32004422799992,-39.214419714999906],[-72.3182436909999,-39.211743690999924],[-72.32952346299993,-39.19937683299992],[-72.3288328619999,-39.193975192999915],[-72.32598870699991,-39.1911078359999],[-72.32868241499995,-39.18824802799992],[-72.33089758799991,-39.19096573799993],[-72.33360992999991,-39.18884444999992],[-72.33263385099991,-39.183566250999945],[-72.32874221199995,-39.17996794399994],[-72.33165259599991,-39.17825153399991],[-72.33327038399995,-39.17521098599991],[-72.32955029699991,-39.17150226399991],[-72.32950561099995,-39.16964016299994],[-72.33544247599991,-39.15682549199994],[-72.34627867199993,-39.15000233299992],[-72.34617584499995,-39.14862916299995],[-72.3401314379999,-39.14838305599994],[-72.33844170099991,-39.146095816999946],[-72.34810525299991,-39.1334376609999],[-72.35420022199992,-39.12817710599995],[-72.35622315699993,-39.12156126299993],[-72.36121997299995,-39.11920945799994],[-72.3641504009999,-39.120105517999946],[-72.37321244799995,-39.118843170999924],[-72.3803301769999,-39.11463840099992],[-72.38222612499993,-39.10887297399995],[-72.39180149599991,-39.10787321399994],[-72.40371424699993,-39.10289640099995],[-72.41081956599993,-39.10188809299996],[-72.4134636739999,-39.09921714299992],[-72.41634300899995,-39.09178943199993],[-72.41826963799991,-39.09058153299992],[-72.4300134959999,-39.0884241089999],[-72.44946238199992,-39.08223762999995],[-72.46022147499991,-39.07736193599993],[-72.47547975499992,-39.07649096199992],[-72.47935416299993,-39.074265993999916],[-72.48315356899991,-39.06936967799993],[-72.49568517199992,-39.07182822699991],[-72.50594359599995,-39.062199534999934],[-72.5059742219999,-39.058700838999926],[-72.50346381599991,-39.05553255099994],[-72.51237493499991,-39.045525633999944],[-72.5129854299999,-39.0417506899999],[-72.51752768699993,-39.037097511999946],[-72.52344886199995,-39.03400066599994],[-72.52123225699995,-39.027279490999945],[-72.5235262029999,-39.02229262599991],[-72.51873695199993,-39.02023895699995],[-72.51771507399991,-39.01774732699994],[-72.5260115179999,-39.010402392999936],[-72.53129478099993,-39.00840032199994],[-72.5369334259999,-39.01135226899993],[-72.54184261899991,-39.01084886599995],[-72.54448914799991,-39.0093138549999],[-72.54655515699994,-39.003873347999956],[-72.54916626799991,-39.004130595999925],[-72.55171158999991,-39.006814436999946],[-72.55435958599992,-39.0073025879999],[-72.56382137199995,-38.996337267999934],[-72.57580912199995,-38.993295100999944],[-72.58515139699995,-38.98526939499993],[-72.58909963099995,-38.98749902199995],[-72.6031475389999,-38.99085241999995],[-72.61555434499991,-38.98454775499994],[-72.62502252299993,-38.98512396199993],[-72.63032470699994,-38.981693572999916],[-72.63668098599993,-38.972548323999945],[-72.6389709149999,-38.97183780699993]]]}},{"type":"Feature","properties":{"cut":9115,"comuna":"PUCÓN"},"geometry":{"type":"Polygon","coordinates":[[[-71.56696090199995,-39.06697639799995],[-71.59644336199995,-39.07764676399995],[-71.60562740799992,-39.07849128599992],[-71.60782196699995,-39.077613888999906],[-71.61426465499994,-39.07896337699992],[-71.62338099499993,-39.07680036499994],[-71.63246292699995,-39.080175563999944],[-71.63251672599995,-39.081397704999915],[-71.62861676099993,-39.084880935999934],[-71.62734001399991,-39.088889742999925],[-71.62799408199993,-39.090886879999914],[-71.62661280099991,-39.0916333909999],[-71.62406756599995,-39.09882294999994],[-71.61955808399995,-39.101797243999954],[-71.61968872599994,-39.10392699499994],[-71.61608008499991,-39.106307716999936],[-71.61624371799991,-39.10825729299995],[-71.62448253899993,-39.11214358899991],[-71.64827951199993,-39.11580812199992],[-71.65384545499995,-39.122652143999915],[-71.66315999999995,-39.1269299999999],[-71.67267995199995,-39.123763879999956],[-71.6806272959999,-39.116234763999955],[-71.6854594369999,-39.11663363999992],[-71.6984090979999,-39.11281274899994],[-71.71513274699993,-39.11268664799991],[-71.7250709939999,-39.108570577999956],[-71.7309942039999,-39.108264066999936],[-71.74225995599994,-39.09959331099992],[-71.79538293999991,-39.128669249999916],[-71.80979875399993,-39.12604730499993],[-71.81453327199995,-39.12824431899992],[-71.81159110199991,-39.137532483999905],[-71.8156285789999,-39.14203024699992],[-71.81639422899991,-39.14856133399991],[-71.81807895199995,-39.15016416399993],[-71.84392046599993,-39.15013630199991],[-71.84927630499993,-39.14620069599994],[-71.8561628249999,-39.14733034599993],[-71.86208762299992,-39.15170057599994],[-71.8635219649999,-39.15725874399993],[-71.86906870999991,-39.16164203099993],[-71.86784146499991,-39.167446973999915],[-71.86847415999995,-39.170259133999934],[-71.8715125949999,-39.17383180299993],[-71.8719207929999,-39.181709258999945],[-71.88500383099995,-39.18450141699992],[-71.88989433299992,-39.1841302709999],[-71.89332874099995,-39.185687198999915],[-71.8963499969999,-39.18322000299992],[-71.90020033699994,-39.18221697999991],[-71.90501544799992,-39.175000352999916],[-71.90933004699991,-39.17200570099993],[-71.9107600019999,-39.16096000099992],[-71.91476789799992,-39.16145667599994],[-71.92401180399992,-39.158629634999954],[-71.92776370099995,-39.158824684999956],[-71.93091349699995,-39.160107601999925],[-71.93228992599995,-39.16531521399992],[-71.93968144699994,-39.16973320199992],[-71.94060766399991,-39.17467691799993],[-71.94237808499992,-39.17721911099994],[-71.94745000299991,-39.17861999999991],[-71.9569800029999,-39.17790999999994],[-71.96987259399992,-39.18029786799991],[-71.97073082399993,-39.184884007999926],[-71.96843499899995,-39.190741973999934],[-71.96630458499993,-39.19296640099992],[-71.9728610759999,-39.198264062999954],[-71.9967402339999,-39.201276297999925],[-72.00046501599991,-39.199264342999925],[-72.02090126299993,-39.20196923499992],[-72.03085906699994,-39.204980288999934],[-72.04387640699991,-39.20610436399994],[-72.04616777599995,-39.208689448999905],[-72.04562805299992,-39.210031545999925],[-72.0481646209999,-39.21141566199992],[-72.0479043709999,-39.213999035999905],[-72.0459420649999,-39.21635004099994],[-72.06830588399993,-39.302003579999905],[-72.06790896599995,-39.31013017899994],[-72.06929398799991,-39.315754108999954],[-72.06668690099991,-39.32248561299991],[-72.0577760619999,-39.32958532799995],[-72.0537175579999,-39.329470072999925],[-72.04960250099992,-39.33280608299992],[-72.03475760799995,-39.33795806099994],[-72.03270215399994,-39.33770546899996],[-72.02958613599992,-39.34014673199994],[-72.02705837499991,-39.34001333099991],[-72.02590883099992,-39.3427111659999],[-72.01978506699993,-39.348146448999955],[-72.0139258179999,-39.35158346299994],[-72.00476518699992,-39.373454386999924],[-72.0000541949999,-39.37767494499991],[-71.99689854499991,-39.38262913099993],[-71.98751603799991,-39.38715251299993],[-71.9863600029999,-39.41303999999991],[-71.92060923999992,-39.421259911999925],[-71.90752267099992,-39.426866472999905],[-71.89972247399993,-39.42883389799994],[-71.88881499599995,-39.428968709999936],[-71.8772929719999,-39.4350470249999],[-71.8663025809999,-39.436687426999924],[-71.86197617399995,-39.4403262429999],[-71.85324047199992,-39.45243271599992],[-71.85034318299995,-39.45994971399995],[-71.8427299999999,-39.46893999899993],[-71.83118790999993,-39.47240443299995],[-71.82610428099991,-39.476738532999946],[-71.81759791499991,-39.477307555999914],[-71.81684202199995,-39.482835731999955],[-71.8121999999999,-39.4868499989999],[-71.81088000099993,-39.489619998999956],[-71.7946800009999,-39.48959999899995],[-71.78804995999991,-39.49394234199991],[-71.78370596499991,-39.49855659199994],[-71.76784141099995,-39.50218767399991],[-71.75959999999992,-39.50860999899993],[-71.75274282299995,-39.503086270999916],[-71.7371077279999,-39.50002110399993],[-71.72843444799992,-39.49644704199994],[-71.72210738799993,-39.49625662999995],[-71.71745971899992,-39.49788415899991],[-71.72411609999995,-39.487429618999954],[-71.72481880599992,-39.481130708999956],[-71.7228971909999,-39.478884561999905],[-71.71844799899992,-39.47726112299995],[-71.71268510899995,-39.47150870999991],[-71.71397844099994,-39.469050662999905],[-71.71279367199992,-39.463642515999936],[-71.71368168399994,-39.458182919999956],[-71.71006139399992,-39.45132935799995],[-71.71425024299992,-39.445622561999926],[-71.71406000099995,-39.438879999999926],[-71.71900799899993,-39.43607142999991],[-71.72679000099993,-39.42783999999995],[-71.72802838399991,-39.42239904899992],[-71.7304700009999,-39.41928999999993],[-71.72897044099994,-39.40935351899992],[-71.73237415099993,-39.40150177599992],[-71.72942000099994,-39.3965399999999],[-71.73809154799994,-39.39559090699993],[-71.74380154699992,-39.392111445999944],[-71.74381024699994,-39.38778455399995],[-71.74228000799991,-39.38619999699995],[-71.74620774999994,-39.37529255399994],[-71.74377487499993,-39.368504523999945],[-71.74192003699994,-39.36744816999993],[-71.72084652099994,-39.36601339099991],[-71.71636893499993,-39.36688687199995],[-71.71518050399993,-39.36567326499994],[-71.71584383599992,-39.363034684999946],[-71.72098671499992,-39.36139179699995],[-71.72288085299994,-39.35928781899992],[-71.72324782999993,-39.35702366999993],[-71.72167023799994,-39.35628558499991],[-71.7264670319999,-39.354493061999904],[-71.72672897399991,-39.35248717099995],[-71.72954086699991,-39.351778113999956],[-71.72862157499992,-39.34942820899994],[-71.72931924199992,-39.34731296199993],[-71.73112944899992,-39.34699454799994],[-71.73084600699991,-39.34584257299991],[-71.73569513299992,-39.34387096499995],[-71.73501796499994,-39.342266554999924],[-71.73959871199992,-39.343111231999956],[-71.7396451109999,-39.340788483999916],[-71.74284619799994,-39.33894599899992],[-71.74200228699993,-39.33729191599991],[-71.74406319699995,-39.33751629299991],[-71.74454930799993,-39.33432307299995],[-71.7431555629999,-39.33420960299992],[-71.74358476799995,-39.33499171299991],[-71.74092338399993,-39.337094400999945],[-71.73731451599991,-39.33562893499993],[-71.72610461799991,-39.33938929999994],[-71.73169492499994,-39.34050722099994],[-71.7315970759999,-39.34357676999991],[-71.72817938799994,-39.343260984999915],[-71.72553006099992,-39.34539177499994],[-71.7222743449999,-39.34467620499993],[-71.71770905199992,-39.345669132999944],[-71.71482645399993,-39.343915384999946],[-71.70708217899994,-39.34249601899995],[-71.70140227399992,-39.34455165999992],[-71.70211360099995,-39.34568288699995],[-71.7050827079999,-39.345788855999956],[-71.70439815399993,-39.3476674929999],[-71.69828852699993,-39.34826207399993],[-71.69254705499992,-39.35130946899994],[-71.68667448399992,-39.35073922299995],[-71.66464237799994,-39.35424565499994],[-71.66243234699994,-39.355576468999914],[-71.6604972049999,-39.35525947499991],[-71.66014993699991,-39.352831359999925],[-71.6584258119999,-39.35191585899992],[-71.6570148799999,-39.355023230999905],[-71.65422450499995,-39.356457012999954],[-71.63950254499991,-39.350684162999926],[-71.63532631099991,-39.35112079399994],[-71.6343300449999,-39.349956979999945],[-71.63625615399991,-39.34847240199991],[-71.63508893799991,-39.344979648999924],[-71.62881230199991,-39.338280708999946],[-71.62629206699995,-39.33793737199994],[-71.62587396099991,-39.334799551999936],[-71.6198402309999,-39.32754871299994],[-71.61831970999992,-39.32694151599992],[-71.61720171399992,-39.32849435499992],[-71.61538803999991,-39.32823889899993],[-71.61726270199995,-39.32500563199994],[-71.61730805799994,-39.31772712199995],[-71.62006858899991,-39.31591417099992],[-71.62649665599992,-39.31467175899991],[-71.63120922599995,-39.309855443999936],[-71.6262139769999,-39.294057867999925],[-71.62761828599992,-39.287728778999906],[-71.63322474299991,-39.28356729899991],[-71.63938002799995,-39.28147977999993],[-71.64318125799991,-39.274163804999944],[-71.64602336299993,-39.27246556199992],[-71.64179158099995,-39.26582001799994],[-71.64035581299993,-39.26107192199993],[-71.63812593699993,-39.26047099199991],[-71.63340656499992,-39.26338283899992],[-71.6296461419999,-39.26329832999994],[-71.62318842499991,-39.25797765699991],[-71.61974771099995,-39.257121740999935],[-71.61915488499994,-39.25183699799993],[-71.62034999999992,-39.24795999999992],[-71.6131090049999,-39.24907622899991],[-71.60698999999994,-39.24460999999991],[-71.59852815199991,-39.246170770999925],[-71.5951258369999,-39.245498924999936],[-71.58906229599995,-39.241524935999905],[-71.58319016599995,-39.2417055489999],[-71.57567882699993,-39.23977729299992],[-71.56143125599993,-39.242260820999945],[-71.55447891099993,-39.237080583999955],[-71.54949331599994,-39.23654210199993],[-71.5478745339999,-39.23456906999991],[-71.53657433699993,-39.22888703099994],[-71.52952954299991,-39.231235829999946],[-71.51917441599994,-39.22927783499995],[-71.51701462599993,-39.226373346999935],[-71.5133407969999,-39.21248336699995],[-71.51377279299993,-39.21068566799994],[-71.51632999999993,-39.20914999999991],[-71.51541630999992,-39.20395927499993],[-71.51123576999993,-39.200327074999905],[-71.50610981799991,-39.19946808099991],[-71.50319774099995,-39.19743654999991],[-71.50580816899992,-39.19487605499995],[-71.50341467699991,-39.1876571759999],[-71.50378999899993,-39.184369999999944],[-71.50754989799992,-39.18261641799995],[-71.50951636799994,-39.178942768999946],[-71.51511461199993,-39.17925521199993],[-71.52088172099991,-39.184433562999914],[-71.52406734999994,-39.18467343099991],[-71.53056227999991,-39.17848699299992],[-71.53153481299995,-39.173076127999934],[-71.53992144199992,-39.16845013299991],[-71.54158039499993,-39.1649403749999],[-71.54473000299993,-39.163629993999905],[-71.54705999999993,-39.160759999999925],[-71.54236923499991,-39.1526372859999],[-71.5439831349999,-39.14851849599995],[-71.5436782619999,-39.14519111399994],[-71.53495027299994,-39.13796417299994],[-71.5361729299999,-39.13196645699992],[-71.53550042899991,-39.12915945299994],[-71.52816454499992,-39.12353784399994],[-71.52725649699994,-39.120723770999916],[-71.52470756699995,-39.11833398899995],[-71.52926667199995,-39.11415802599993],[-71.52993248999991,-39.11192971499992],[-71.51991867899994,-39.09879701199992],[-71.52010191199992,-39.09712766399991],[-71.52415304099992,-39.093812449999916],[-71.52526671599992,-39.09044642899994],[-71.52379790499992,-39.08463863499992],[-71.52112829299995,-39.08204642599992],[-71.52031551899995,-39.07736664099991],[-71.52448886799993,-39.07250320599991],[-71.53404998899993,-39.06733000599991],[-71.53961667699991,-39.06996064099991],[-71.55067445999993,-39.06609439099992],[-71.56696090199995,-39.06697639799995]]]}},{"type":"Feature","properties":{"cut":9120,"comuna":"VILLARRICA"},"geometry":{"type":"Polygon","coordinates":[[[-72.31616123299995,-39.063356434999946],[-72.3186239819999,-39.06026497799991],[-72.33158454199992,-39.09435535699993],[-72.35746919499991,-39.08824901599991],[-72.36958668099993,-39.11941812999993],[-72.3641504009999,-39.120105517999946],[-72.36121997299995,-39.11920945799994],[-72.35622315699993,-39.12156126299993],[-72.35420022199992,-39.12817710599995],[-72.34810525299991,-39.1334376609999],[-72.33872889899993,-39.14544101599995],[-72.3394647529999,-39.14804315899994],[-72.34617584499995,-39.14862916299995],[-72.34627867199993,-39.15000233299992],[-72.33544247599991,-39.15682549199994],[-72.32950561099995,-39.16964016299994],[-72.32955029699991,-39.17150226399991],[-72.33327038399995,-39.17521098599991],[-72.33165259599991,-39.17825153399991],[-72.32874221199995,-39.17996794399994],[-72.33263385099991,-39.183566250999945],[-72.33360992999991,-39.18884444999992],[-72.33089758799991,-39.19096573799993],[-72.32868241499995,-39.18824802799992],[-72.32598870699991,-39.1911078359999],[-72.3288328619999,-39.193975192999915],[-72.32952346299993,-39.19937683299992],[-72.3182436909999,-39.211743690999924],[-72.32004422799992,-39.214419714999906],[-72.31896500699992,-39.21641317299992],[-72.32139549099992,-39.217872910999915],[-72.31942393599991,-39.21852068399994],[-72.3202029599999,-39.22156462399994],[-72.3173271629999,-39.22265170199995],[-72.31757889799991,-39.22430010699992],[-72.31473979299994,-39.225795701999914],[-72.3173435949999,-39.22644695999992],[-72.31605068199991,-39.22932374499993],[-72.31351896299992,-39.226093721999916],[-72.31053664399991,-39.227903359999914],[-72.31374621599991,-39.22897060699995],[-72.3124117289999,-39.22998827099991],[-72.31437266199993,-39.230021880999914],[-72.31643420899991,-39.23252459299994],[-72.31530923699995,-39.235215930999914],[-72.31725511199994,-39.23810165899994],[-72.32080778399995,-39.237856750999924],[-72.32057521999991,-39.235482099999956],[-72.34669452499992,-39.2293587339999],[-72.35908099799991,-39.262654022999925],[-72.36087107499992,-39.262128193999956],[-72.3608456849999,-39.26463697499992],[-72.36583701399991,-39.26263279099993],[-72.37177822399991,-39.264753613999915],[-72.37296882599992,-39.266717430999904],[-72.3796261679999,-39.26827744299993],[-72.39217264699994,-39.26738810299992],[-72.39335019999993,-39.26886043899992],[-72.39345143199995,-39.2721284939999],[-72.38814833999993,-39.274225817999934],[-72.38750032599995,-39.27807615599994],[-72.39037247899995,-39.28109106599993],[-72.38812341899995,-39.28719828599992],[-72.3863318459999,-39.28705445199995],[-72.38387364499994,-39.28317487399994],[-72.37990176599993,-39.2869458749999],[-72.37712339199993,-39.287189585999954],[-72.37389088899994,-39.28971577599992],[-72.37289371899993,-39.293904977999944],[-72.36748067799994,-39.293751098999905],[-72.36304559299992,-39.2969839939999],[-72.36151735199991,-39.29669259099995],[-72.35834584399993,-39.29876476399994],[-72.35339846099993,-39.29891809199995],[-72.35059553299993,-39.300777712999945],[-72.34890077299991,-39.30364900199993],[-72.3502205069999,-39.305953830999954],[-72.34817263899993,-39.30751977399996],[-72.34790083999991,-39.30964087099994],[-72.3500827439999,-39.31127376499995],[-72.35140493699993,-39.31711136699994],[-72.3507191729999,-39.322719853999956],[-72.35215386699991,-39.32561934699993],[-72.3514064389999,-39.32720494999995],[-72.35310820399991,-39.33033922799996],[-72.35037232999991,-39.332749891999924],[-72.3500708819999,-39.33483759999996],[-72.3474028519999,-39.336290284999905],[-72.35232523499991,-39.33761864199994],[-72.35676294299992,-39.343115921999924],[-72.3631163199999,-39.343548419999934],[-72.36506265499992,-39.346673584999905],[-72.37185653999995,-39.34807503899992],[-72.37378555799995,-39.35026273999995],[-72.37648082899995,-39.34920645999995],[-72.38544858599994,-39.35049397799992],[-72.38880509499995,-39.35669997999992],[-72.39306636999993,-39.358800068999926],[-72.39905199099991,-39.36006020699995],[-72.4104613209999,-39.3594904869999],[-72.41279289699992,-39.36083516699995],[-72.41685419899994,-39.35976778899993],[-72.41969093799992,-39.360929857999906],[-72.4349160889999,-39.36078016999994],[-72.4366771839999,-39.36297953899992],[-72.43092465199993,-39.36384521999992],[-72.42818356799995,-39.36710445199992],[-72.42384733499995,-39.36605352399994],[-72.42207046899995,-39.367207840999924],[-72.41998681399991,-39.36567965599994],[-72.4133396599999,-39.36771667599993],[-72.41260093499994,-39.36945248799992],[-72.41356243399991,-39.37056396199995],[-72.40939967999992,-39.37211994499995],[-72.3951894089999,-39.36984306699992],[-72.39247818599995,-39.37310660599991],[-72.3897894669999,-39.37392916199991],[-72.3881702779999,-39.37363605199994],[-72.38817069399994,-39.37152346599993],[-72.38288639599995,-39.37174249699996],[-72.38181477799992,-39.374308440999926],[-72.37970051799994,-39.37342298899995],[-72.3794341759999,-39.37565570399994],[-72.37681389999995,-39.37673625299993],[-72.37735280999993,-39.37859973999991],[-72.37500907099991,-39.38435759899994],[-72.37606352699993,-39.38593993799992],[-72.37155867399991,-39.38488775499991],[-72.36935227799995,-39.387666650999904],[-72.36634349899992,-39.38879672199994],[-72.36809989799991,-39.390156292999905],[-72.36634692299992,-39.392891335999934],[-72.36039812199994,-39.393657323999946],[-72.35807732099994,-39.39269922199992],[-72.3577568369999,-39.39390363199993],[-72.35130722199995,-39.39353616799991],[-72.3452560039999,-39.39475849599995],[-72.34443850699995,-39.39559116299995],[-72.34535282299993,-39.39670211299995],[-72.34293387299994,-39.39588560999994],[-72.33896011999991,-39.39931543299991],[-72.34710124599991,-39.4211943329999],[-72.33875109299993,-39.42140814299995],[-72.34058787399994,-39.42312870099994],[-72.34068167399994,-39.43135137699994],[-72.34573551199992,-39.44208375399995],[-72.34389093699991,-39.449460347999945],[-72.34825074799994,-39.45263189599996],[-72.35197388499995,-39.45892833799991],[-72.35424704499991,-39.460489079999945],[-72.35306050199995,-39.462796821999916],[-72.34841658099992,-39.463819574999945],[-72.3437929509999,-39.469645775999936],[-72.3423901999999,-39.47446936699993],[-72.3435414619999,-39.47625422699991],[-72.34243157399993,-39.47782990499991],[-72.33407211799994,-39.48299276299991],[-72.32453900299993,-39.48363239699995],[-72.31992245499993,-39.48851952799993],[-72.30222000599991,-39.49777999999992],[-72.29179398499991,-39.49563678599992],[-72.2843600349999,-39.490760002999934],[-72.27587006099992,-39.49252653099995],[-72.26931247699991,-39.50106717199992],[-72.27540430699992,-39.507754177999914],[-72.26876934699993,-39.51343461599993],[-72.11911097399991,-39.510430260999954],[-72.1093084609999,-39.50528168799991],[-72.10827064799992,-39.503598318999934],[-72.09045598999995,-39.49718546799994],[-72.08896406999992,-39.49386004699994],[-72.0821560839999,-39.489415521999945],[-72.07799493599993,-39.48337109499994],[-72.0708896079999,-39.47888881299991],[-72.06428596199993,-39.476686258999905],[-72.06308850699992,-39.47480928899995],[-72.0610286029999,-39.475162575999946],[-72.0480102759999,-39.46591881799992],[-72.03891990699992,-39.46461101999995],[-72.0245150909999,-39.45809037299995],[-72.01102413399991,-39.44751973099994],[-72.00562784499994,-39.44567373599995],[-71.99343033499991,-39.44453003099994],[-71.9793054989999,-39.447010322999915],[-71.96394410599993,-39.44537135899992],[-71.93973000299991,-39.4194599999999],[-71.9863600029999,-39.41303999999991],[-71.98751603799991,-39.38715251299993],[-71.99689854499991,-39.38262913099993],[-72.0000541949999,-39.37767494499991],[-72.00476518699992,-39.373454386999924],[-72.00716643899995,-39.369376883999905],[-72.00870565199995,-39.36256563099994],[-72.0108241609999,-39.36056169999995],[-72.01245279199992,-39.35374817799993],[-72.02590883099992,-39.3427111659999],[-72.02705837499991,-39.34001333099991],[-72.02958613599992,-39.34014673199994],[-72.03270215399994,-39.33770546899996],[-72.03475760799995,-39.33795806099994],[-72.04960250099992,-39.33280608299992],[-72.0537175579999,-39.329470072999925],[-72.0577760619999,-39.32958532799995],[-72.06547913299994,-39.324212848999935],[-72.06921553599994,-39.31639470199991],[-72.06790896599995,-39.31013017899994],[-72.06830588399993,-39.302003579999905],[-72.0459420649999,-39.21635004099994],[-72.04823322099992,-39.21230024499994],[-72.04757234399995,-39.210558335999906],[-72.04562805299992,-39.210031545999925],[-72.04559053999992,-39.20773339899995],[-72.04291839799993,-39.205859319999945],[-72.03085906699994,-39.204980288999934],[-72.02090126299993,-39.20196923499992],[-72.00884984099991,-39.200313396999945],[-71.9993721589999,-39.19921815899994],[-71.99847318099995,-39.20119487699992],[-71.9967402339999,-39.201276297999925],[-71.9728610759999,-39.198264062999954],[-71.96630458499993,-39.19296640099992],[-71.96843499899995,-39.190741973999934],[-71.97073082399993,-39.184884007999926],[-71.97093842699991,-39.18200553299994],[-71.96922817399991,-39.17976190199994],[-71.9569800029999,-39.17790999999994],[-71.94745000299991,-39.17861999999991],[-71.94237808499992,-39.17721911099994],[-71.94060766399991,-39.17467691799993],[-71.93968144699994,-39.16973320199992],[-71.93228992599995,-39.16531521399992],[-71.9323768939999,-39.162605853999935],[-71.9300460039999,-39.15957517699991],[-71.92401180399992,-39.158629634999954],[-71.91476789799992,-39.16145667599994],[-71.9107600019999,-39.16096000099992],[-71.9105013269999,-39.15661539999991],[-71.91320850499994,-39.152447750999954],[-71.9262481369999,-39.14138319199992],[-71.93135163099993,-39.14207064499993],[-71.93412885099991,-39.140995570999905],[-71.93724023699991,-39.13725001599994],[-71.94129497199992,-39.13693131799994],[-71.9459004389999,-39.1340140879999],[-71.95100511499993,-39.132696290999945],[-71.9613494429999,-39.12015615999991],[-71.97765954199991,-39.120612158999904],[-71.97990206799994,-39.12140599799994],[-71.98011204199992,-39.125076047999926],[-71.98152938099992,-39.125847352999926],[-71.99033612599993,-39.12709399399995],[-71.9974666679999,-39.131057176999946],[-72.0029163179999,-39.13112021399991],[-72.00413748699992,-39.13322530699992],[-72.00734000199992,-39.13181999999995],[-72.01877461099991,-39.13638610699991],[-72.0451071249999,-39.14279967199991],[-72.04908288299993,-39.13644037899991],[-72.05612185799993,-39.131845451999936],[-72.05749669799991,-39.12796140499995],[-72.06266576199994,-39.12517622799993],[-72.06774470999994,-39.12436412999995],[-72.07307140499995,-39.12737792899992],[-72.08247559699993,-39.12706282999994],[-72.08800056199993,-39.122975984999925],[-72.09172934399993,-39.12249258899993],[-72.09432116399995,-39.11924654799992],[-72.09912499099994,-39.11806451699994],[-72.10217661299993,-39.115014422999934],[-72.10867202799994,-39.11393712499995],[-72.10948999599992,-39.11125477899992],[-72.11268126099992,-39.11173932399993],[-72.11993971999993,-39.10870285999994],[-72.12665338999994,-39.108440737999956],[-72.12963866699994,-39.10456395099993],[-72.1361656819999,-39.104296674999944],[-72.13863260199992,-39.10264110399993],[-72.14753014899992,-39.10358002299995],[-72.15574498099994,-39.09979444299995],[-72.15901633099992,-39.102040910999904],[-72.16546726699994,-39.10065302299995],[-72.16833610899994,-39.1024750279999],[-72.18418184899991,-39.10526000099992],[-72.19569065499991,-39.102938528999914],[-72.20686982799992,-39.09723413799992],[-72.21532006899992,-39.096585073999904],[-72.2227048979999,-39.09833342899992],[-72.22416761099993,-39.100587290999954],[-72.22862115099991,-39.10273867399991],[-72.23332522399994,-39.10056360599992],[-72.24173959799992,-39.099875736999934],[-72.2428925719999,-39.1029615999999],[-72.24571269699993,-39.1027490269999],[-72.24663388699992,-39.10501856099995],[-72.25189601399995,-39.10796714799994],[-72.25986710699993,-39.10765941299991],[-72.26642681499993,-39.111349581999946],[-72.26792366299992,-39.10816845599993],[-72.27081654799991,-39.1078533779999],[-72.27197817899992,-39.106011200999944],[-72.27226355899995,-39.09628806299992],[-72.27729397999991,-39.092576858999905],[-72.2780472789999,-39.089711543999954],[-72.28621456199994,-39.082969533999915],[-72.29161514799995,-39.08239698299991],[-72.29801076299992,-39.07541922199994],[-72.30215934899991,-39.07433964899991],[-72.30291693099991,-39.07206885599993],[-72.30563530799992,-39.07082991499993],[-72.30709031499993,-39.07221042099991],[-72.31194706799994,-39.07069639699995],[-72.3117374819999,-39.06775006099991],[-72.30988974499991,-39.06938763499994],[-72.3089337909999,-39.06880699399994],[-72.3104111689999,-39.06469236799995],[-72.31301437199994,-39.062346962999925],[-72.3141554149999,-39.06370212399992],[-72.31500941899992,-39.06245600999995],[-72.31616123299995,-39.063356434999946]]]}},{"type":"Feature","properties":{"cut":14108,"comuna":"PANGUIPULLI"},"geometry":{"type":"Polygon","coordinates":[[[-71.89972247399993,-39.42883389799994],[-71.90752267099992,-39.426866472999905],[-71.92060923999992,-39.421259911999925],[-71.93973000299991,-39.4194599999999],[-71.96394410599993,-39.44537135899992],[-71.9793054989999,-39.447010322999915],[-71.99343033499991,-39.44453003099994],[-72.00562784499994,-39.44567373599995],[-72.01102413399991,-39.44751973099994],[-72.0245150909999,-39.45809037299995],[-72.03891990699992,-39.46461101999995],[-72.0480102759999,-39.46591881799992],[-72.0610286029999,-39.475162575999946],[-72.06308850699992,-39.47480928899995],[-72.06428596199993,-39.476686258999905],[-72.0708896079999,-39.47888881299991],[-72.07799493599993,-39.48337109499994],[-72.0821560839999,-39.489415521999945],[-72.08896406999992,-39.49386004699994],[-72.09045598999995,-39.49718546799994],[-72.10827064799992,-39.503598318999934],[-72.1093084609999,-39.50528168799991],[-72.11911097399991,-39.510430260999954],[-72.26876934699993,-39.51343461599993],[-72.27548730899991,-39.50723723899995],[-72.26941457899994,-39.50140749499991],[-72.27051776799993,-39.49895499399992],[-72.27528285799991,-39.49286728799996],[-72.27886970499992,-39.49118477999991],[-72.2843600349999,-39.490760002999934],[-72.29179398499991,-39.49563678599992],[-72.30154535499992,-39.497459110999955],[-72.30839404099993,-39.50187179099993],[-72.32959323499995,-39.51024484399994],[-72.32688948599991,-39.513862554999946],[-72.32759951399993,-39.51459826699994],[-72.33232943399992,-39.51505831499992],[-72.33385207399994,-39.51647159699991],[-72.34864195599994,-39.51768842899992],[-72.35072034699994,-39.521091585999955],[-72.3568070469999,-39.521658147999915],[-72.35899627799995,-39.525622221999924],[-72.36514472699992,-39.5266446949999],[-72.3706299559999,-39.53071930199991],[-72.3712880409999,-39.52944594999991],[-72.37618723799994,-39.52892159599992],[-72.37912095199994,-39.5314156739999],[-72.38692712499994,-39.532501415999945],[-72.39192556199993,-39.535077637999905],[-72.3965314699999,-39.53415846699994],[-72.39898891399991,-39.53602815599993],[-72.41000920899995,-39.552168955999946],[-72.41348954199992,-39.55281183499994],[-72.4158853479999,-39.551807228999905],[-72.4206803639999,-39.55350753599993],[-72.43567201999991,-39.554627818999904],[-72.43879895099991,-39.556031177999955],[-72.4399620069999,-39.55797134199992],[-72.4448436479999,-39.55890129699992],[-72.44739981299995,-39.55772551799993],[-72.4510607709999,-39.55168519299991],[-72.45669596899995,-39.5476095919999],[-72.46023063099994,-39.54681428099991],[-72.46147501999991,-39.544055225999955],[-72.47690719499991,-39.5560397399999],[-72.48140797499991,-39.56519620699993],[-72.4882752549999,-39.56228153199993],[-72.48689481299994,-39.56487323899995],[-72.48424665499994,-39.56509968699993],[-72.48250720699991,-39.56884119699993],[-72.47301692999991,-39.57608987999993],[-72.47287558999994,-39.58023985799991],[-72.47751248899993,-39.58267394599994],[-72.48265865699994,-39.58049329799991],[-72.48587277299993,-39.58090587899994],[-72.4906774559999,-39.585492717999955],[-72.49317528199992,-39.59000710499993],[-72.4971258839999,-39.58614329399995],[-72.49923238699995,-39.58590489799991],[-72.49950240699991,-39.583131490999904],[-72.50226774799995,-39.58168652599994],[-72.50514833099993,-39.577709023999944],[-72.50532418299991,-39.58283328199991],[-72.51036491299993,-39.58654498799996],[-72.51592291499992,-39.58950179399994],[-72.52253314199993,-39.58957543799994],[-72.52748240999995,-39.59185774699995],[-72.55226556699995,-39.585605278999935],[-72.5548724649999,-39.59453317099991],[-72.5536668229999,-39.59946055499995],[-72.55685250599993,-39.60368521799995],[-72.55732005699991,-39.60728058399991],[-72.55602460699993,-39.60837042499992],[-72.56158981599992,-39.61479363199993],[-72.56031913599992,-39.61921731599995],[-72.56131391299994,-39.622112038999944],[-72.5600557809999,-39.62408106599992],[-72.56072006699992,-39.62823909399992],[-72.5615900809999,-39.62973481999995],[-72.56677100699994,-39.631933569999944],[-72.56532642299993,-39.6367049989999],[-72.5699797769999,-39.637599774999956],[-72.57272841799994,-39.640486052999904],[-72.57910597499995,-39.64286242299994],[-72.58683086699995,-39.643703425999945],[-72.58749438099994,-39.64590186299995],[-72.5935534429999,-39.645856453999954],[-72.59322953599991,-39.649146980999944],[-72.5950724619999,-39.64979327299994],[-72.5924094099999,-39.65023806399995],[-72.59269454699995,-39.65167638499992],[-72.59465774299991,-39.65209094799991],[-72.59364462999991,-39.65395730599994],[-72.59703571999995,-39.65554554399995],[-72.59842277899992,-39.658907524999904],[-72.60305772299995,-39.660980767999945],[-72.60331064099995,-39.66268415899992],[-72.60130459299995,-39.66453007599995],[-72.59754821599995,-39.665164088999916],[-72.59595751299992,-39.662189767999905],[-72.5881326679999,-39.65976172299992],[-72.5618899829999,-39.668222287999924],[-72.54339021899995,-39.66618180499995],[-72.54149693099993,-39.674205602999905],[-72.5366460649999,-39.67906527899993],[-72.53679641399992,-39.68738376199991],[-72.53122448499994,-39.68781223599996],[-72.52950536799995,-39.6920412849999],[-72.52397155099993,-39.69400943599993],[-72.52466604799992,-39.697610298999905],[-72.52794505499992,-39.70248514699995],[-72.52500517999994,-39.70405619699994],[-72.52414453499995,-39.71114786499993],[-72.51776491699991,-39.713668286999905],[-72.51426325599994,-39.71306678399992],[-72.5090395439999,-39.71472008499995],[-72.51040841899993,-39.7178484449999],[-72.50811120599991,-39.719060345999935],[-72.5091171329999,-39.719248604999905],[-72.50973235499993,-39.72231124199993],[-72.50746240199993,-39.725352469999905],[-72.50997661799994,-39.72496502999991],[-72.51184360899992,-39.72840134699993],[-72.51392848299992,-39.72709924399993],[-72.5156857099999,-39.72801522799995],[-72.51389573599994,-39.730566876999944],[-72.52043769499994,-39.72978798799994],[-72.52110167199993,-39.734090298999945],[-72.52615021799994,-39.73578358299994],[-72.52604045599992,-39.73711902899993],[-72.52178085899993,-39.73839743499991],[-72.52393412899994,-39.73946589299993],[-72.52469224299995,-39.74245042299992],[-72.52185781899993,-39.74443036999992],[-72.52384899299994,-39.747463757999924],[-72.5272084739999,-39.74926057199991],[-72.52806170499991,-39.75084435999992],[-72.52689956499995,-39.75185107999994],[-72.52335820999991,-39.751533561999906],[-72.51897238299995,-39.74563262699991],[-72.5104742389999,-39.745638769999914],[-72.5031435599999,-39.74803531899994],[-72.4984329099999,-39.747315476999916],[-72.49238714199993,-39.74403938499995],[-72.48992055799994,-39.74437523599994],[-72.48548088299992,-39.750626018999924],[-72.4782165659999,-39.75152375499994],[-72.47112827099994,-39.75674037899995],[-72.46697999199995,-39.75716585299995],[-72.46587169799994,-39.763356905999956],[-72.46278064699993,-39.76394604099994],[-72.45879437299993,-39.76904205999995],[-72.46111034699993,-39.77300955499993],[-72.4596757939999,-39.77565187099992],[-72.45213166399992,-39.775814744999934],[-72.44638216999994,-39.77922980599993],[-72.4314454659999,-39.781995854999934],[-72.39588854499993,-39.79626006099994],[-72.38029258899991,-39.80022421599995],[-72.36157755499994,-39.80936886599994],[-72.34218384799993,-39.81389804199995],[-72.33525444599991,-39.81692863299992],[-72.31662382199994,-39.83300993699993],[-72.30617733399993,-39.83877164699993],[-72.28046336699992,-39.84895962199994],[-72.27159613399994,-39.85466137399993],[-72.26042874199993,-39.866124373999924],[-72.25088098799995,-39.87211936399996],[-72.23827799899993,-39.85890698199995],[-72.23368041399993,-39.85744162399993],[-72.22826074999995,-39.84918231599994],[-72.22849805599992,-39.84540907699994],[-72.2264875969999,-39.84213607899994],[-72.22004655799992,-39.84057519399994],[-72.2163559729999,-39.84288162699994],[-72.21525000399993,-39.84111554099991],[-72.21758246699994,-39.83761686799994],[-72.21682000099992,-39.833729999999946],[-72.14062737899991,-39.876755749999916],[-72.14626010499995,-39.887237171999914],[-72.15252399799994,-39.88850382399994],[-72.15736248799993,-39.89563313699995],[-72.16291788899991,-39.89910449599995],[-72.16285913099995,-39.90122268199991],[-72.15982341199992,-39.90600582399992],[-72.1599765979999,-39.909209441999906],[-72.15854005199992,-39.90970797199992],[-72.15576661599994,-39.908518433999916],[-72.14583201199991,-39.90804894599995],[-72.1391163319999,-39.90160929299992],[-72.12994604799991,-39.89910801399992],[-72.12756451899992,-39.8969231289999],[-72.12067405899995,-39.89632874499995],[-72.11072937499995,-39.899261001999946],[-72.1065207499999,-39.90227722299994],[-72.10581608299992,-39.90416929799994],[-72.09871447699993,-39.90736965499991],[-72.08787739799993,-39.92107528899993],[-72.07979427299995,-39.92210980999994],[-72.06724178899992,-39.92129754399991],[-72.05479919899994,-39.919001143999935],[-72.04065264099995,-39.913479072999905],[-72.03005584999994,-39.91660704399993],[-72.02745091699995,-39.91780446799993],[-72.02589949399993,-39.921410512999955],[-72.02964999999995,-39.93202999999994],[-72.0120157849999,-39.93036939099994],[-71.99449996499993,-39.9260632939999],[-71.9847914739999,-39.91930845499991],[-71.9694674719999,-39.91220555099994],[-71.9609347409999,-39.91507728499994],[-71.95250291499991,-39.913758979999955],[-71.93858651699992,-39.90892956399995],[-71.92772775199995,-39.901388642999905],[-71.90565460399995,-39.90022501199991],[-71.89329590299991,-39.896031766999954],[-71.88212708399993,-39.903528843999936],[-71.8774966499999,-39.91111184199991],[-71.87383881599993,-39.91148016799991],[-71.87475500599993,-39.91658417399992],[-71.87215056899993,-39.91971036499996],[-71.8627558629999,-39.91877111499991],[-71.85812201599992,-39.916658738999956],[-71.85756412199993,-39.91511530699995],[-71.85252572399992,-39.914621921999924],[-71.84997370299993,-39.912595250999914],[-71.84989333599992,-39.91107349199996],[-71.84381748899995,-39.91370190999993],[-71.83879999899995,-39.919599999999946],[-71.82496205399991,-39.92520454499993],[-71.8168483099999,-39.93208804199992],[-71.82519811199995,-39.94227688299992],[-71.82163952099995,-39.94373303999993],[-71.81718520099992,-39.94965712399994],[-71.80201094799992,-39.95448924699991],[-71.79955249499994,-39.956815632999906],[-71.79910540199995,-39.96001265599995],[-71.80083923899991,-39.96453077099994],[-71.79902376599995,-39.96832039299994],[-71.79418849399991,-39.97013517999994],[-71.7977872109999,-39.97530352299992],[-71.7938425129999,-39.976824525999916],[-71.79291014899991,-39.98004214899993],[-71.79416619999995,-39.98476775899991],[-71.80596229899993,-39.98601071399992],[-71.8089641489999,-39.985010952999914],[-71.8124422269999,-39.99263350099994],[-71.81971333799993,-39.99564898299991],[-71.8265792489999,-39.996817037999904],[-71.83167697199991,-39.99973301399996],[-71.82498925699991,-40.000909118999914],[-71.81949049099995,-40.008099123999955],[-71.81063212099991,-40.01202646099995],[-71.80809824099993,-40.01706597999993],[-71.81208478299993,-40.02275736999991],[-71.81065170699992,-40.02714922699994],[-71.80908419699995,-40.02834098999995],[-71.8166944749999,-40.033478879999905],[-71.82253058499992,-40.039252276999946],[-71.82246853099991,-40.04479705499995],[-71.8257537689999,-40.048988041999905],[-71.8231418709999,-40.05647218599995],[-71.81516378099991,-40.0639415519999],[-71.81567728199991,-40.066082510999934],[-71.81971118399991,-40.06737783099993],[-71.82358826899991,-40.072193529999936],[-71.8158856519999,-40.077970459999904],[-71.81458959699995,-40.08099944299994],[-71.8092393199999,-40.08093617299994],[-71.80729398799991,-40.08255427499995],[-71.7865392619999,-40.089264285999946],[-71.76569518299993,-40.09054919499994],[-71.76086278199995,-40.09307511299994],[-71.7520370769999,-40.09430874399993],[-71.74659060599993,-40.09795890599992],[-71.74073119699995,-40.09850904099994],[-71.72933133499993,-40.10279560999993],[-71.71877221199992,-40.110155953999936],[-71.7136801659999,-40.10982282899994],[-71.70849294099992,-40.11110773799993],[-71.70067652599994,-40.11653297799995],[-71.69721429599991,-40.11729433699992],[-71.68893377099994,-40.1138203239999],[-71.68826752199993,-40.112202289999914],[-71.69055180499993,-40.110584256999914],[-71.68983796599991,-40.10968006199994],[-71.6743238809999,-40.104445246999944],[-71.67356245299993,-40.10092364499991],[-71.6702041769999,-40.09823161799994],[-71.66749159199992,-40.090426985999954],[-71.67474516099992,-40.08252810099992],[-71.67389557799993,-40.07979403099995],[-71.66713790799992,-40.076082071999906],[-71.66670960599993,-40.07251288099991],[-71.67048971199995,-40.06434809299992],[-71.67929371799994,-40.05378328699993],[-71.67953166399991,-40.05183212899993],[-71.68175410099991,-40.050279265999905],[-71.68538991799994,-40.044263987999955],[-71.68570048899994,-40.04138890299993],[-71.68914468699995,-40.037983665999946],[-71.68876397299994,-40.03412893899991],[-71.6862845949999,-40.029587472999935],[-71.67732813099991,-40.027962170999956],[-71.67334506599991,-40.02556287899995],[-71.67006140899991,-40.01542637499995],[-71.67058489099992,-40.00324353499991],[-71.66580885899992,-39.998285153999916],[-71.66561289099991,-39.99660408299991],[-71.66789717299991,-39.994231165999906],[-71.66335240299992,-39.9897815729999],[-71.6583793289999,-39.98925809199994],[-71.65983079999995,-39.98725934399994],[-71.65814699499992,-39.98410356599993],[-71.65184811099994,-39.97877807499992],[-71.65300809899992,-39.97511965399991],[-71.6520860569999,-39.97288890999994],[-71.64203283499995,-39.96937920499994],[-71.63415443899993,-39.96876991399995],[-71.63073560399994,-39.97049304899991],[-71.6257387359999,-39.977012772999956],[-71.61955213699991,-39.97058822699995],[-71.61860035299992,-39.968875014999924],[-71.61952813099992,-39.96410228299993],[-71.61483107399994,-39.95744931099995],[-71.61888281999995,-39.94831574999995],[-71.62550723999993,-39.939159583999924],[-71.61886378499992,-39.93615194499995],[-71.61456171899994,-39.93737022899995],[-71.59906666899991,-39.92983209699992],[-71.5995014369999,-39.92298794699991],[-71.60184587999993,-39.921389768999916],[-71.6035145699999,-39.91771660299992],[-71.59416255699995,-39.91293007599995],[-71.5969632259999,-39.90884049099992],[-71.59577825399992,-39.90428620299991],[-71.5930299769999,-39.902130410999916],[-71.59638025799995,-39.89105164199992],[-71.61004312299991,-39.88041069099995],[-71.61356948399992,-39.87512828899992],[-71.62389822999995,-39.88160410899991],[-71.63344818999991,-39.88254816999995],[-71.63285902199993,-39.87574000099994],[-71.63649499299993,-39.87249252599992],[-71.63690674299994,-39.86962875699993],[-71.63563838699991,-39.85957205199992],[-71.64363337499992,-39.853861346999906],[-71.64679102399992,-39.85288211099993],[-71.65641108099993,-39.85571732599993],[-71.66181136499995,-39.861085430999935],[-71.6711138739999,-39.863765764999926],[-71.67318628099991,-39.862070486999926],[-71.67501846599993,-39.86242740599994],[-71.67711239199991,-39.859405490999904],[-71.68120506499992,-39.85923892799991],[-71.68565465699993,-39.85569353099993],[-71.68679415299994,-39.850990192999916],[-71.68882805999993,-39.849007728999936],[-71.68893831299994,-39.84446247499994],[-71.69069911399993,-39.842939619999925],[-71.69100844399992,-39.84022703399995],[-71.6862631109999,-39.83223392799994],[-71.68651126199995,-39.83051883399992],[-71.69284062899993,-39.82599785799994],[-71.69219817499993,-39.823523217999934],[-71.68658264699991,-39.82228589899995],[-71.68318001699993,-39.81745559299992],[-71.68165606999992,-39.81725575999991],[-71.68113258799991,-39.81449558499992],[-71.67780243599992,-39.81022203099991],[-71.6682607969999,-39.80907988999991],[-71.66697588799991,-39.807152525999925],[-71.67042501399993,-39.80466841099991],[-71.6785400679999,-39.80386886999992],[-71.6839652399999,-39.80172735499991],[-71.67758828399991,-39.796183210999914],[-71.67827832799992,-39.79090080699996],[-71.68122424899991,-39.78920975999995],[-71.67999044699991,-39.78418125299993],[-71.6844173369999,-39.77762341499994],[-71.68432215899992,-39.775101186999905],[-71.68027184399995,-39.77014287199995],[-71.68108499899995,-39.765811812999914],[-71.68329898999991,-39.76249004299996],[-71.68434407399991,-39.75744101499993],[-71.69079241399993,-39.754395305999935],[-71.70231088399993,-39.74564345999994],[-71.70861645499991,-39.7381719519999],[-71.70951771199992,-39.73088125499993],[-71.7120428799999,-39.72784509099995],[-71.71278051299993,-39.724442461999956],[-71.7099013639999,-39.72439487299994],[-71.70423824699992,-39.721491930999946],[-71.70416686399994,-39.71808930099991],[-71.70085941199994,-39.710522614999945],[-71.69748057899994,-39.710379846999956],[-71.69536176499992,-39.70775296399995],[-71.69360096399993,-39.70761019799994],[-71.69938117299995,-39.70283695599994],[-71.7032834879999,-39.701908965999905],[-71.70245255899994,-39.698639628999956],[-71.7047587539999,-39.695960312999944],[-71.70398548799994,-39.695045516999926],[-71.69969238399995,-39.69323825299995],[-71.6931707789999,-39.6958413399999],[-71.68513008299993,-39.69166780899991],[-71.67884642399991,-39.69312875499992],[-71.67696288099995,-39.691858114999945],[-71.67139782799995,-39.69273070699995],[-71.66925719599993,-39.68258774299994],[-71.67331719999993,-39.67806779499995],[-71.68619895899991,-39.67899475699994],[-71.68824529499994,-39.67744810699992],[-71.69165771199994,-39.67246125499992],[-71.69347771199995,-39.65785125499991],[-71.69862926299993,-39.66009707799992],[-71.70525368299991,-39.65293311499994],[-71.7153425969999,-39.65019673499995],[-71.71465255299995,-39.6407502749999],[-71.71711003899992,-39.63755886599995],[-71.7162058429999,-39.6346083329999],[-71.71229688699992,-39.633588096999915],[-71.70418292499994,-39.63237457199995],[-71.69932882499995,-39.63368327499995],[-71.69973333299993,-39.630352029999926],[-71.69749663999994,-39.628924352999945],[-71.6940292669999,-39.622092367999926],[-71.69407685599992,-39.620331567999926],[-71.69811529899994,-39.61517106899993],[-71.69585481099995,-39.611863617999916],[-71.69571204399995,-39.604534877999924],[-71.69888100999992,-39.59730750299991],[-71.69469551599991,-39.59339606899994],[-71.69811958199995,-39.588132301999906],[-71.69023880799995,-39.58293555899991],[-71.68860173799993,-39.58011827699994],[-71.68871595199994,-39.57545453299991],[-71.6832717449999,-39.56787832999993],[-71.67906261999991,-39.565631314999905],[-71.68854903199991,-39.5631416139999],[-71.69639750899995,-39.562842780999915],[-71.6978842499999,-39.55729583899995],[-71.6959937009999,-39.55100876299991],[-71.70316252999993,-39.54599261299995],[-71.70391759299991,-39.539906852999934],[-71.70820272399993,-39.535195797999904],[-71.70753614299991,-39.52060915099992],[-71.70177925299993,-39.505440506999946],[-71.7049006769999,-39.50197854899994],[-71.71278431999991,-39.50066287899995],[-71.7198456559999,-39.496592310999915],[-71.72617643899991,-39.49614552699995],[-71.7371077279999,-39.50002110399993],[-71.75274282299995,-39.503086270999916],[-71.75959999999992,-39.50860999899993],[-71.76784141099995,-39.50218767399991],[-71.78370596499991,-39.49855659199994],[-71.78804995999991,-39.49394234199991],[-71.7946800009999,-39.48959999899995],[-71.81088000099993,-39.489619998999956],[-71.8121999999999,-39.4868499989999],[-71.81684202199995,-39.482835731999955],[-71.81759791499991,-39.477307555999914],[-71.82610428099991,-39.476738532999946],[-71.83118790999993,-39.47240443299995],[-71.83680945799995,-39.471502708999935],[-71.8440830479999,-39.46777619599993],[-71.85034318299995,-39.45994971399995],[-71.85324047199992,-39.45243271599992],[-71.86476723499993,-39.437553255999944],[-71.8772929719999,-39.4350470249999],[-71.88881499599995,-39.428968709999936],[-71.89972247399993,-39.42883389799994]]]}}]}